name,id,new_id,x,y,address,owner_name,notes,category
رويال القطان,1,90009876,47.97778329,29.36814869,المرقاب- قطعة 1- شارع الشهداء,السيد/ بدر ناصر علي القطان,,royal
رويال كيفان,2,16719191,47.95253465,29.34344017,كيفان ق 5 نادي الكويت الرياضي,ص/ طلال محمد احمد ملحم,,royal
رويال شرق,3,90006245,47.98804957,29.37648837,شرق ق 5 مبني 3 ب ,ص/ عبد العزيز خالد الحميدي الخالدي,,royal
رويال 3,4,15888882,48.05587117,29.32928071,السالمية- قطعة 226- شارع عمان,ص/ عادل علي عبد الحسين بو عباس,,royal
رويال الجابرية اثنين,5,90506522,48.02546914,29.32113287,الجابرية ق 3ب مبني 66 شارع ابراهيم معرفي,ص/ مي صقر سعد الثويني,,royal
رويال السالمية 1,6,90256332,48.0569666,29.33662374,السالمية- قطعة 9- شارع بغداد,ص/ جبر احمد العبد الله الجبر,,royal
رويال المعالي,7,17853018,47.95302129,29.27562761,الجابريه ق 3ب شارع 11 قسيمه 43,ص/ فاطمه يوسف حسين اشكناني,,royal
رويال حولي,8,17854897,48.01661886,29.32612901,حولى قطعة 139 شارع شرحبيل,ص/ مني توفيق محمد صالح,,royal
رويال سلوي,9,11907724,48.08317718,29.28227688,سلوي ق 11 قسيمه 360,ص/ ازهار حمود بدر الاستاذ,,royal
رويال 1,10,93035199,48.0536472,29.33370971,السالمية قطعة 35 شارع عمان,ص/ ريم بدر ناصر ثاني,,royal
رويال الفاون,11,11260617,48.08224249,29.33333173,السالمية ق 5 شارع الخنساء,ص/ فاطمة إسماعيل عبد الله البناء,,royal
رويال السالمية 2,12,16668902,48.05478452,29.3362247,السالمية ق 9 مبني 9,ص/ مريم محمود محمد نجم,,royal
رويال الرجاء,13,92921105,48.05459488,29.32982097,السالمية ق 238 شارع عمان,ص/ سكينة محمد غلوم,,royal
رويال الجابرية بلس,14,12133142,48.03058821,29.3219626,الجابرية ق 3ب قسيمة 38,ص/ اسيل محمد يوسف الحساوي,,royal
رويال 2,15,12087844,47.99657303,29.31843392,السالمية ق 11 شارع عبد الله فضالة,ص/ إيمان شاكر عوض نظر,,royal
رويال فور,16,15155849,48.01779505,29.32216047,الجابرية قطعة1أ شارع1 قسيمة 88,ص/زينب عبدالله محمد,,royal
رويال السالميه,17,93746011,48.08653468,29.34294996,السالمية ق 82 مبني 4,ص/ فاطمه منصور صرخوه,,royal
رويال بلس,18,16603551,48.0788067,29.33184096,السالمية ق 182 شارق قطر,ص/ اسماء ضاوي حسن العجمي,,royal
رويال الشعب,19,16169564,48.03062912,29.34965726,الشعب ق 8 قسيمه 82,ص/ مريم عادل احمد عبد الرسول,,royal
رويال فايف,20,12097006,48.02246322,29.32374956,الجابرية ق 1 أ شارع 105,ص/ فتوح صلدق حسن الحواج,,royal
رويال حولي اثنين,21,21105776,48.02736407,29.33257064,حولي ق 1 شارع تونس قسيمة 11,ص/ زينب عبد الكريم حسن سلطان,,royal
رويال المنقف,22,90907596,48.13706234,29.10168589,المنقف ق 4 شارع 28 ,ص/ مني فياض عبد الرزاق الكاظمي,رويال المرقاب,royal
رويال العقيلة,23,93458933,48.09940006,29.17024177,العقيلة ق 5 شارع 250 ,ص/ اليزابيث أليس محمد,,royal
رويال المنقف اثنين,24,15900001,48.12842328,29.10385387,المنقف ق 4 شارع عبد الله الحميدي الغانم,ص/ نجاح دلي علوان العنزي,,royal
رويال المهبولة,25,15222546,48.12390031,29.15385678,المهبولة ق 4 قسيمة 4أ-4ب ,ص/ محمد عيال حمود العنزي,,royal
رويال توب,26,19980643,48.12688695,29.147347,المهبولة ق 4 قسيمة 109,ص/ عادل ابراهيم عبد الله اسحق التركيت,,royal
رويال المنقف ثري,27,14711954,48.12531545,29.10165176,المنقف-قطعة 04-قسيمة 5415-شارع 16,ص/منيه عبدالمحسن سليمان,,royal
رويال الاحمدي,28,19901618,48.08119894,29.08531674,شرق الاحمدي ق 9 قسيمة 19,ص/ بدر رضا على محمد بوشهري,,royal
رويال الفحيحيل بلس,29,19856589,48.12306461,29.08355705,الفحيحيل ق 33 قسيمة 29,ص/ ايمان فاضل الصفار,,royal
رويال العقيلة فور,30,21548083,48.09727712,29.16957934,العقيلة ق5 قسيمة80 مجمع سما مول,ص/بشاير سعود عبدالعزيز المحروس,,royal
رويال,31,18047704,48.13232965,29.07683729,الفحيحيل ق 7 شارع الدبوس البرج الاخضر,ص/ دلال خليل ابراهيم قمبر,,royal
رويال صباح السالم,32,90366937,48.08868313,29.24885566,صباح السالم ق 2 قسيمه 52,ص/ شيماء جعفر عيسي الموسوي,,royal
رويال صباح السالم 2,33,20556516,48.0804573,29.25351849,صباح السالم ق 3 شارع 30 قسيمه 98,ص/ نوره عادل محمد القصار,,royal
رويال المهبولة تو,34,19271249,48.1218075,29.14561892,المهبولة ق 2 شارع 226 ,ص/ صمود فلاح سند السيحان,,royal
رويال العقيلة 3,35,19614846,48.09934729,29.16883549,العقيلة ق 5 مبني 92,ص/ لمياء عيسى السيد عبد الوهاب الرفاعي,,royal
رويال العقيلة 2,36,20790417,48.09410197,29.17269487,العقيلة ق 5 قسيمة55 محل 59-60,ص/ شيخة اسعد رميح عثمان الرميح,,royal
رويال صباح السالم فايف,37,95654209,48.08488094,29.25724052,صباح السسالم-قطعة 1-قسيمة 524-شارع 104,ص/نور سعد محمد العوضي,,royal
رويال صباح السالم ثلاثة,38,21357906,48.08203889,29.25407964,صباح السالم ق 3 ش 301,ص/ انوار فلاح عودة العنزي,,royal
رويال الفحيحيل,39,17321775,48.12948661,29.08518511,الفحيحيل ق 8 شارع المستوصف,ص/ محمد مهدي سيد عباس,,royal
رويال صباح السالم فور,40,21406587,48.08579644,29.25823114,صباح السالم ق 1 شارع 104,ص/ شيماء عبد الحسين محمد عباس,,royal
رويال الجليب,41,18076724,47.94032703,29.25679859,جليب الشيوخ ق 5 شارع 100,ص/ نهار عبد الله خالد المتلقم,,royal
رويال الرقعي تو,42,15865656,47.91390945,29.30026434,الرقعي ق 2 ش 17,ص/ منى زيد خليف الذايدي العنزي,,royal
رويال خيطان,43,18625201,47.96935977,29.29131629,أبرق خيطان ق 62 قسيمة 7,ص/ زهراء فاضل محمد,,royal
رويال الفروانية,44,12615803,47.96657264,29.27197408,الفروانية ق 1 شارع حبيب مناور,ص/ نوف مجيد البغدادي,,royal
رويال خيطان 2,45,18101248,47.97427766,29.28244547,خيطان القديمة ق 8,ص/ عبد الرحمن عبد اللطيف السليم,,royal
رويال الرقعي,46,20779824,47.91578755,29.30207213,الرقعي ق 13 قسيمة 34,ص/ ريحانه توفيق جعفر الكصيمي,,royal
رويال خيطان 4,47,20483062,47.97004752,29.29046091,خيطان القديمة ق 7 قسيمة 32,ص/ وفاء سليمان عبد العزيز الخلف,,royal
رويال خيطان فايف,48,18964158,47.9766282,29.29741966,خيطان ق 6 شارع 62 قسيمة 353,ص/ ابرار صالح عبد الله الموسوي,,royal
رويال الرقعي فور,49,19255986,47.90668285,29.30181093,الرقعي ق 2 شارع 21 ,ص/ انسام خالد عبد الغفار معرفي,,royal
رويال الاندلس,50,12769239,47.8835427,29.29952819,الاندلس ق4 شارع 2قسيمه227,ص/مريم حسين علي العطية,,royal
رويال الفروانية فور,51,20183991,47.951221,29.27716649,الفروانية ق 5 قسيمة 7504,ص/ اشواق فهد جاعد العتيبي,,royal
رويال الرضا,52,16097054,47.96147883,29.28025904,الفروانية ق 4 شارع حبيب مناور,ص/ اسراء عباس شرهان حسن,,royal
رويال الفروانية ثري,53,21204598,47.96083997,29.28219597,الفروانية ق 1 شارع علي فهد الدويلة,ص/ مريم عدنان محمود يعقوب باقر,,royal
رويال الجهراء اربعه,54,91228835,47.66361025,29.35174828,الجهراء ق 5 ش 3,ص/ هيا خالد سالم البريكي,,royal
رويال الجهراء,55,14655286,47.66452233,29.35258794,الجهراء ق 3 شارع دعبل الخزاعي,ص/ عادل عبد الجبار علوان الشراد,,royal
رويال الجهراء بلس,56,17582641,47.67083436,29.34081545,الجهراء ق 4 شارع 29-93,ص/ ايمان عبد الرحمن العبد الوهاب,,royal
رويال الرقعي 3,57,20625905,47.90971652,29.30160829,الرقعي-قطعة 2-قسيمة 1493,ص/يوسف مسلم حيدر الرشيدي,,royal
رويال الرقعي فايف,58,95656124,47.91288099,29.30235171,الرقعي-قطعة 2-قسيمة14105-شارع 17,ص.بشاير متعب معيوف العنزي,,royal
رويال الفروانية تو,59,20874741,47.96224506,29.28288667,الفروانية-قطعة1-قسيمة 005024-شارع علي فهد الدويلة,ص/رنا محمد يوسف بشير,,royal
رويال الجليب تو,60,18774717,47.94168292,29.2541083,جليب الشيوخ -قطعة 5-قسيمة 010113-شارع 55,ص/هبه عبدالله عبدالرحمن البحر,,royal
رويال خيطان ثري,61,93294924,47.97427766,29.28244547,خيطان-قطعة 4-قسيمة 97-شارع 86,ص/انوار خليل محمد الهلال,,royal
رويال الجهراء فايف,62,21551418,47.67345425,29.33868989,الجهراء-قطعة 04-قسيمة 009341-مجمع سدف التجاري,ص/منيرة عبدالعزيز حمد العنزي,,royal
رويال الجهراء ثلاثة,63,92402292,47.67337683,29.34312219,الجهراء ق 4 شارع 3,ص/ منيرة خليفة سعود الجويعد,الاسم في موقع المعلومات المدنية رويال فقط,royal
صيدلية سلوى الجديدة,64,14635664,48.07621507,29.30021097,سلوى-قطعة 5-شارع 5,ص/زياد غانم سلطان مرزوق,,
صيدلية فارما فاملي,65,91569867,48.07871451,29.28719826,سلوى -قطعة 10-شارع 4,ص/منى حادى علي الشريفي,,
صيدلية مشاعل,66,11371675,48.0569666,29.33662374,السالمية -قطعة 9 -شارع بغداد,ص/مشاعل مسلم بداح المطيري,,
صيدلية بهبهاني,67,17702762,47.92493836,29.25499524,السالمية -قطعة 10-شارع المغيرة بن شعبة-قسيمة 20112,ص/رامي صادق يلي بهبهاني,,
صيدلية الثمين,68,95187831,47.66779916,29.35018008,الجهراء -قطعة 3-شارع مرزوق المتعب,ص/زينب جاسم محمد امير,,
صيدلية تارجت,69,93289199,48.13232965,29.07683729,الفحيحيل -قطعة 7-قسيمة 8409-شارع الدبوس,ص/موضي عطيه محمد الشويحان,,
صيدلية الفوز  ,70,96233254,48.125165 , 29.106838,المنقف-قطعة4-شارع نايف حمد الدبوس-قسيمة1604,ص/فاطمه مساعد عمر خليفوه,,
صيدلية العلي,71,12769124,47.8835427,29.29952819,الاندلس-قطعة 4-شارع 2-قسيمة 227,ص/فاطمة عبدالوهاب خلفة العلي,,
الحياة الرقعي,72,93273891,47.91526574,29.3064452,الرقعي-قطعة 1-شارع 6,ص/نوف علي محمد القحطاني,,
صيدلية اوكسجين الوطنية,73,19889436,47.93942117,29.25753093,جليب الشيوخ ق 4 شارع العباسية,ص/لولوه محمد علي العمر,,
فارما زون اشبيلية,74,20645949,47.95172684,29.27723538,الفروانية ق 5 شارع 7502,ص/ علي عبد العال علي جمعة,,pharmazone
فارما زون خيطان تو,75,18977389,47.97714617,29.29745833,خيطان القديمة ق 1+2+3,ص/ جنان محمد عبد الرحمن بهمن,,pharmazone
فارما زون الفروانية,76,20082293,47.95894397,29.26988739,الفروانية ق 6 مبني 1017,ص/ الاء عثمان عبد الرحمن المحطب,,pharmazone
فارما زون الرقعي,77,20896975,47.91623969,29.30576749,الرقعي ق 1 شارع 2 قسيمة 78,ص/ شريفه وضاح خالد الزيد,,pharmazone
فارما زون الرقعي تو,78,12753114,47.91490663,29.30165197,الرقعي ق 2 شارع 17,ص/ فهد حسين صالح العجمي,,pharmazone
فارما زون الناصر,79,18655988,47.67202178,29.3392768,الجهراء ق 93 مبني 43,ص/ إسراء محمد احمد الكندري,,pharmazone
فارما زون سليل الجهراء,80,17893263,47.64978162,29.3636039,الجهراء مجمع سليل ق 6,ص/ زينب حسن ابراهيم دشتي,,pharmazone
فارمازون الجهراء,81,16525733,47.66716675,29.35515044,الجهراء- قطعة 90- شارع المضخة,ص/ دينا أحمد الشرهان,,pharmazone
فارما زون القيصرية,82,91226469,47.67109066,29.35426413,الجهراء قطعة 21 – مبنى 18,ص/ عذاري مسلط ذعار العتيبى,,pharmazone
فارما زون الجهراء مول,83,20552486,47.66009475,29.31232856,الجهراء الصناعية ق 1 مبني 22,ص/ حصه عبد العزيز مشعان الخالدي,,pharmazone
فارمازون صحاري مول,84,93322622,47.67167459,29.34708092,الجهراء ق 3 مجمع صحاري مول,ص/ فاطمة صلاح حسين السبيعي,,pharmazone
فارمازون الديرة,85,14693573,47.66579171,29.35074706,الجهراء- قطعة 5- الشارع الرابع,ص/ عزة شفيق جراح,,pharmazone
فارما زون واره,86,91549276,47.66490723,29.35146087,الجهراء ق 33 شارع مرزوق متعب,ص/ لولوه عبد الحمن عبد الله الدعيج,,pharmazone
فارما زون بوابة الجهراء,87,15036292,47.6663916,29.3512744,الجهراء ق 90 الشارع الرئيسي مجمع القصر,ص/ يوسف فيصل رويح,,pharmazone
فارما زون المخيال,88,94387815,47.67089103,29.33890559,الجهراء ق 93 شارع مرزوق المتعب ,ص/ مريم عبد الحميد عبد المحسن الموسي,,pharmazone
فارما زون العالمية,89,19617086,47.67438311,29.34018789,الجهراء ق 4 شارع 3 جادة 7,ص/ محمد صالح محمد المشموم,,pharmazone
فارما زون سيتي سنتر,90,19845804,47.64978162,29.3636039,الجهراء منتجع سليل التجاري محل 8,ص/ فاطمة عبد الحميد عبد المحسن الموسي,,pharmazone
فارما زون خيطان فور,91,20482879,47.97004752,29.29046091,خيطان ق 7 قسيمة 32,ص/ علي حسين عبد النبي الصايغ,,pharmazone
فارما زون الجليب,92,17060309,47.92526253,29.25520252,جليب الشيوخ ق 24 قسيمه 48,ص/ عماد حسين محمد الفارس,,pharmazone
فارما زون شاهه,93,17105036,47.96883545,29.2969367,ابرق خيطان ق 1+2+3 قسيمة 101 ,ص/ أميره صالح العوضي,,pharmazone
فارمازون الفروانية تو,94,15773313,47.66481826,29.35490208,الفروانية- شارع حبيب مناور- ق 58,السيدة / عمشه نزال رشيد المعصب,,pharmazone
فارما زون الشهداء,95,16929973,47.9777554,29.28335534,خيطان ق 6,ص/ فيصل حمد دراس العنزي,,pharmazone
فارما زون خيطان ثري,96,21047991,47.9766803,29.28329417,خيطان القديمة ق 6 مبني 215,ص/ عبير عبد الله عبد الرحمن بخش,,pharmazone
فارما زون المغيرة,97,14971174,47.90917253,29.3017992,الرقعي قطعة2 شارع21 قسيمة 1509,ص/ حسن احمد حسن الصباغه,,pharmazone
فارما زون العمرية,98,21581174,48.08567288,29.25745796,صباح السالم ق1 قسيمة528 ش104,ص/ محمد عبد الرضا عامر البلوشي,,pharmazone
فارما زون صباح السالم فور,99,21360021,48.08207489,29.25429433,صباح السالم ق 3 شارع 304,السيد / عبد اللطيف جاسم الهاشل,,pharmazone
فارما زون الساحل,100,19120563,48.12536748,29.15109229,المهبولة ق 2 شارع الطريق الساحلي,ص/ كافيه رحيم باتل المطيري,,pharmazone
فارما زون سما,101,20067413,48.09819425,29.17015162,العقيله ق 5 قسيمة 84,ص/ لطيفه ناصر عبد اللطيف الكليب,,pharmazone
فارما زون فيفتي ايت,102,20779242,48.09487352,29.17278973,العقيلة ق 5 مبني 58,ص/ ناصر سليمان جابر السليطي,,pharmazone
فارمازون مكة,103,16098102,48.13037413,29.09364107,المنقف ق 4 شارع 25,ص/ يوسف عايض عوض العازمي,,pharmazone
فارما زون صباح السالم ثري,104,21437578,48.07757021,29.2644645,صباح السالم ق 7 ش 101 قسيمة 385-386 ,ص/ مني جاسم ابراهيم الفارسي,,pharmazone
فارما زون المهبولة,105,17320369,48.11542099,29.15681974,المهبولة ق1 شارع 10 ,ص/ نسيمة فهد مبارك الجري,,pharmazone
فارما زون صباح السالم,106,21292938,48.08253336,29.25481954,صباح السالم ق 3 شارع 300 قسيمه 12,ص/ سامي عبد الكريم عايد فرج,,pharmazone
فارمازون المنقف,107,94411264,48.13011219,29.10809087,المنقف ق 52 مبني 17,ص/ محمد ناهس عشوي العنزي,,pharmazone
فارما زون صباح السالم تو,108,21585749,48.08488094,29.25724052,صباح السالم ق 1 شارع 104,ص/ اروي يوسف شعت,,pharmazone
فارمازون الرعاية,109,20807573,48.13011219,29.10809087,الصديق ق5  مبنىى جمعية الصديق,ص/فواز مصطفى عبداللطيف العومي,,pharmazone
فارما زون عمان,110,90258186,48.0602642,29.32288809,السالمية ق 10 0211 شارع عمان,ص/ هاني درويش حسين زكريا,,pharmazone
فارمازون المغيرة تو,111,93344055,48.04538832,29.32526674,السالمية ق12 ش المغيرة بن شعبه,ص. زهراء حيدر بدر الوزان,,pharmazone
فارمازون الجابرية تو,112,90504885,48.02078266,29.32318931,الجابرية ق 1 شارع 105,ص/ ضحي عبد الستار عبد المحسن الوزان,,pharmazone
فارما زون البلاجات,113,21133945,48.08872855,29.33519529,السالمية ق 6 شارع عمرو بن العاص,ص/ متعب راشد محمد المطيري,,pharmazone
فارما زون حولي,114,20975956,48.02341719,29.3283234,حولي ق 9 ش شرحبيل بناية 9462,ص/ فاطمة علي غلوم اشكناني,,pharmazone
فارما زون بغداد,115,93010362,48.04921002,29.33684204,السالمية ق 4+5 شارع بغداد,ص/ عمار هادي ابراهيم المرزوق,,pharmazone
فارما زون السلام مول,116,19774137,48.06295035,29.33583159,السالمية ق 19 السلام مول محل 23,ص/ سارة جمال عبد الخالق النوري,,pharmazone
فارما زون المثني,117,17168707,48.03250703,29.33427493,حولي ق 7 قسيمه 1 شارع المثني,ص/ فهد خليل عيسي بو حمره,,pharmazone
فارما زون السالمية,118,19572949,48.08956079,29.3384194,السالمية شارع الخنساء ق 3,ص/ عبد الرحمن ابراهيم البلوشي,,pharmazone
فارما زون ميدان حولي,119,17542957,48.04242927,29.34012691,السالمية شارع بغداد ق 11,ص/ قناه اسماعيل احمد اسماعيل,,pharmazone
فارما زون الجابرية,120,93458511,48.01741008,29.32302869,الجابرية ق 1 أ قسيمة 86 مبني 5900,ص/ يحي علي حسين باقر,,pharmazone
فارمازون البحرين,121,17824858,48.08532184,29.33083638,السالمية ق 6 شارع البحرين,ص/ نور جمال محمد العبد الهادي,,pharmazone
فارما زون النخله مول,122,95667712,47.824162 , 29.321859,العاصمه ق 1 شارع جمال عبد الناصر,ص/ سعد ساير قحطان الظفيري,,pharmazone
فارما زون كيفان,123,21308354,47.95253465,29.34344017,كيفان ق 5 مبني نادي الكويت الرياضي,ص/ سعود عبد العزيز الجناعي,,pharmazone
فارما زون غرناطة,124,10564459,47.87828694,29.31183508,غرناطة ق 1 شارع 2 مجمع الدبوس,ص/ حسين حسن ابراهيم دشتي,,pharmazone
فارمازون الجابرية,125,18730028,48.01741008,29.32302869,,,,pharmazone
فارمازون الدائري الرابع,126,11044471,48.0202146,29.32577259,,,,pharmazone
فارمازون المباركية,127,90011351,47.97148454,29.37362963,القبله ق 3 شارع علي سالم قسيمة 4,ص/ صبيحة عبد الحميد محمد عابدين,الاسم في موقع المعلومات المدنية فارمازون ايتي ناين,pharmazone
صيدلية الوفرة,128,96187606,48.17947651,28.55178431,مزارع الوفره-قطعة 5-قسيمة 00اوا11,الدكتور/عبدالله منجد بدر البدر الجناعي,,
صيدلية ذي ووك,129,90773583,47.924289 , 29.270972,العارضية استعمال حكومي-قطعة 0-قسيمة 900014,ص/فيصل سالم مجبل العدواني,,
صيدلية امجاد,130,20922942,48.0853209,29.2629149,صباح السالم-قطعة 1-شارع 114-قسيمة 00082,زينب عبدالواحد حميد صادق,,
صيدلية صحتك خير|(ماى دكتور سابقا),131,95384907,48.08411749,29.26189203,صباح السالم-قطة 1-قسيمة 456-الدور الأرضي,بدرية حجى محمد وليدات,,
صيدلية تداوي الشفاء,132,11486552,48.06199751,29.32165027,,,,
صيدلية بيور الرقعي,133,20320845,47.90981309,29.30135828,,,,
صيدلية النهار,134,18354624,47.67167459,29.34708092,الجهراء-قطعة 3-شارع مرزوق المتعب-قسيمة 4130ا0,ص/ابرار خالد فهد المطيري,,
ذي واير هاوس(فارمازون الاندلس سابقا),135,91160113,48.103609 , 29.085258,جنوب الصباحية-قطعة 1-قسيمة 49,ص/معالي خالد ضويحي الرسيس,,
صيدلية الحبيب,136,16211937,48.04874797,29.33703432,ميدان حولي-قطعة 5+4-مبنى رقم 15,طارق محمد عبدالرحم الحبيب,,
الدوائية بنيد القار,137,21456509,48.00820329,29.36789967,بنيد القار ق 1 ش+A128:A137ارع محمد معرفي قسيمة 20, لطيفه سمير جاسم السري ,,
الدوائية قرطبة,138,90482495,47.99217314,29.31204621,قرطبة ق 2 شارع 1 جادة 2 ,ص/ فريدة عبد الله العوضي,,
الدوائية السالمية,139,90277344,48.04514265,29.32511718,السالمية ق 12 قسيمة 1295 ,ص/ زينب خالد خميس الربيع,,
الشفاء الدوائية,140,18413209,48.09722525,29.17379945,العقيلة ق 5 قسيمة 22 محل 24+25,ص/ حمد سليمان السلطان,,
الدوائية الكبرى,141,21559639,48.08262052,29.25603425,صباح السالم ق 3 قسيمة 121,ص/ عالية فيصل عبد الله العلي,,
المسيلة الدوائية,142,14741256,48.08928023,29.24901057,صباح السالم ق 2 عقار 55 ,ص/ قمره فهد مرزوق العتيبي,,
صباح السالم الدوائية,143,21054841,48.08559537,29.25880761,صباح  السالم ق 1 مبني 284,ص/ حنين يوسف عبد الله البناي,,
صيدلية الدكتورة مريم الفيلكاوي(الصفوة الدوائية سابقا),144,12063148,47.99217314,29.31204621,المنقف-قطعة 4-قسيمة 057130-شارع 25,ص/ مريم يوسف علي ابراهيم الفيلكاوي,,
الدوائية الفحيحيل,145,17314313,48.12874225,29.08480373,الفحيحيل ق8 شارع ابن تيمية ,ص/خالد وليد عبدالله حسين,,
خيطان الدوائية,146,18654424,47.97465234,29.29145263,خيطان القديمة ق 16 ,ص/ حمزه عباس حسين شرف,,
الدوائية الجهراء,147,14185907,47.67014001,29.34119843,الجهراء ق 4 ش 1 قسيمة 9235,ص/ جاسم محمد جاسم العنزي,,
الدوائية المتطورة,148,14190124,47.66817297,29.34887356,الجهراء ق 5 شارع مرزوق بن متعب ,ص/ اسراء محمد حميان العرادة,,
دار الصحة,149,17760751,47.92730937,29.25287399,جليب الشيوخ-قطعه 24-قسيمه610,ص/حصه إبراهيم يوسف الشهوان,,
المثنى,150,93528241,48.09385688,29.17431833,العقيلة-قطعه 5-مبنى 43,ص/منيره سامي عيسى العيسي,,
سندس,151,94320995,48.09544112,29.17336848,العقيلة-قطعة5-مجمع 89,ص/امنيه محمد عيسى القصار,,
هبه,152,10841313,48.01285521,29.3464333,حولى-قطعة 204-شارع تونس,تركي راشد عبدالله الهنيدي,,
سيما بو شهري,153,17300202,48.05178918,29.3368896,السالمية-قطعة4-شارع بغداد الدور الأرضي-المحل الوحيد,جواد جاسم محمد بوهري,,
بوشهري الوطنية,154,90265407,48.05289905,29.335988,ميدان حولي-قطعة 1-شارع بغداد-الدور الأرضي-المحل الوحيد,محمد جواد جاسم بو شهري,,
الهاجري كيفان,155,21304003,47.95253465,29.34344017,كيفان ق 5 قسيمة 900001,حمد عبد الله فهد الهاجري ,,
اشبيلية الهاجري,156,94072266,48.00871025,29.36902791,بنيد القار ق 1  مبني 126,ص/ أمل عبد الرحمن الجودر,الاسم في موقع المعلومات المدنية برايم,
محمد ناصر الهاجري,157,90254257,48.05900863,29.33190046,بنيد القار ق 1 شارع بور سعيد,السيد / محمد ناصر الهاجري,,
الهاجري الحمرا,158,18985602,47.99302012,29.37881579,شرق ق 8 شارع الشهداء برج الحمرا,ص/ ساره احمد عبد الله الزين,,
الهاجري الدولية,159,19204206,47.98904875,29.3867772,شرق ق 3 مبني 1 شركة أوتاد العقارية,ص/ هاجر حسين بكر العصفور,,
سما الهاجري,160,19091328,47.86339598,29.31172034,غرناطة ق 3 شارع طريق الجهراء مبني سما الصليبخات,ص/ شيخة محمد سعود الغانم,,
الهاجري العاصمة,161,21591647,47.98719477,29.37386757,المرقاب ق 3 شارع مبارك الكبير,ص/ نوره عبد الرحمن سعود العوام,,
رحاب الهاجري,162,16822658,47.98767862,29.32904904,حولي شارع تونس مجمع الرحاب,ص/ ناصر محمد الهاجرى,,
الهاجري حولي,163,21320142,48.02399751,29.32707541,حولي ق 9 شارع 242,ص/ ريم سالم سعود العازمي,,
المهلب الهاجري,164,15712756,48.0259258,29.34071727,حولي  شارع بيروت سوق المهلب,السيد/ عبد العزيز محمد ناصر الهاجرى,,
هلال الهاجري,165,17355289,48.052577,29.33679497,السالمية ق 5 عقار 15,ص/ سمية شهاب احمد شهاب,,
الهاجري الجابريه,166,90505052,48.023744 , 29.325079,الجابرية ق 3 أ مبني 100,ص/ عبد العزيز جهاد الغربللي,,
دانة الهاجري,167,18065881,47.99268792,29.26786517,الزهراء ق7 مول 360,ص/  اعتماد يوسف الغانم,,
الهاجري المتحدة,168,21850055,48.103609 , 29.085258,السالمية شارع المغيرة بن شعبة قطعه 9,ص/ سلوي احمد عبد الله المفرح,العنوان مختلف في المعلومات المدنية,
الهاجري,169,17394472,48.13653935,29.09273281,المنقف ق 57 مبني 1+2,شركة محمد ناصر الهاجري,,
لؤلؤة الهاجري,170,21480496,48.33263295,28.678455,الخيران مدينة صباح الاحمد البحرية ق3,ص/ لينا سعدي عبد العزيز ابوضهير,,
الهاجري الساحل,171,20678513,48.12275882,29.15652916,المهبولة الطريق الساحلي ق 4 مبني 208,ص/ ندي علي عبد الرحمن محمد ابا حسين,,
الهاجري الخيران,172,20495581,48.3721115,28.67957274,صباح الاحمد البحرية ق2 قسيمة 1118,ص/ ندي فيصل حسن السراج,,
الهاجري الكوت,173,90969009,48.138998 , 29.078241,الفحيحيل ق 12 شارع الدبوس مبني 85,ص/ ايمان علي ابا حسين,غير موجودة في المعلومات المدنية,
زهرة الهاجري,174,12785845,47.87903796,29.30597961,الاندلس ق 9 شارع 1 قسيمة 223,ص/ دانه احمد عبد العزيز الفليج,,
الهاجري الرقعي,175,20884341,48.13899792,29.07824121,الرقعي ق 1 شارع مطلق عيد البغيلي,ص/ فاطمه سليمان فهد الحويل,,
الهاجري سدرة,176,93507133,48.02640112,29.34124735,,,,
الخيران هايبرد,177,95642929,48.34824277,28.67330152,,,,
الشايع,178,15353001,48.02469422,29.33305513,سوق شرق محل رقم 48-49,شركة محمد حمود الشايع,,
صفوان المتحدة,179,20067691,48.09785356,29.17010684,العقيلة-قطعة 5-قسيمة 83-الدور الأرضي-محل رقم 2+3,مريم  محمد محمود الرحماني,,
الشايع مارينا,180,15967652,48.06585624,29.33918505,السالمية- مجمع مارينا مول- محل 54-55-56,السيد/ سعود عبد العزيز الشايع,,
مرامي,181,92112463,48.01115489,29.3459961,حولي قطعة 200 شارع تونس مجمع بلازا,السيد/ محمد عبد اللطيف الشايع,,
الكويت,182,91589091,48.07401067,29.34235118,السالمية شارع سالم المبارك قسيمة 71,السيد/ علي عبد الوهاب الشايع,,
التقوى,183,21485844,47.96124975,29.25180016,الفروانية-مطار الكويت الدولي-قسيمة 900029-مبنى الركاب 4-محل رقم 18,فاطمة محمد عبدالله اشكناني,,
التسامح,184,14719876,48.09232566,29.34094541,السالمية قطعة 96 شارع الخنساء مبنى 4,السيد/ ايمن عبد اللطيف الشايع,,
النجاح,185,93312432,48.09870024,29.17340548,الفنطاس ق 5 مجمع البيرق,السيد/ بدر حمد عبد العزيز الشايع,العنوان لا يطابق المعلومات المدنية,
الأمين,186,90969009,48.13899792,29.07824121,الفحيحيل ق 14 مجمع الكوت,السيد/ عبد اللطيف محمد الشايع,,
الشايع أوتاد الجهراء,187,19558178,48.09870928,29.17503037,العقيلة ق 5قسيمة 9,السيد/ على محمد عبد اللطيف الشايع,,
الشايع مطار الكويت,188,90734365,47.97152952,29.23931185,مطار الكويت- صالة المغادرين,شركة صيدلية الشايع مطار الكويت,,
الشايع أفنيوز,189,93071421,47.936938 , 29.303225,الري الصناعية مبني 1862 وحده 26A,ص/ رانيا سليمان صالح الشايع,,
رندا,190,17406971,47.93693771,29.30322544,الري ق3 الدائري الخامس مجمع أفينيوز,السيد/ محمد عبد العزيز الشايع,,
صيدلية الصباحية(الدوائية الحديثة سابقا),191,91160113,48.10324913,29.08546453,جنوب الصباحية-ققطعة 1-قسيمة 000049-الوحدة m21,ص/يوسف خلف مسلم الحربي,,
النجاة,192,93071421,47.93693771,29.30322544,الفروانية مجمع الأفنيوز,السيد/ يوسف فهد الشايع,,
الشايع أبراج المنشر,193,92972738,47.67353421,29.34770752,الجهراء ق 41 أ عقار32,السيد/ شايع عبد اللطيف الشايع,,
الجميع المنقف,194,91765243,48.07400397,29.34104996,السالمية -قطعة 4-قسيمة 4501-شارع سالم المبارك-مجمع الفنار-السرداب,جنان شاكر عبدالهادي نقي,,
النصر,195,90773583,47.9242888,29.27097209,العارضية استعمال حكومي-قطعة 01-قسيمة 900014-شارع محمد بن قاسم-مبنى نادي النصر الرياضي,نورة احمد عثمان المجلهم,,
الكوت الساحلي,196,20892288,47.93693771,29.30322544,الرى-مجمع الافنيوز-عقار رقم 1873-الدائري الخامس,غدير سعود بطاح الضلماوي,,
بيفرلي هيلز بيوتي سيكريت,197,19876707,48.07664134,29.32992879,السالمية-قطعة 8-قسيمة 800005-الدور الأرضي-محل رقم 25GR,سمر كاظم فاروق سكوتي,,
البسمة,198,21276209,48.37506571,28.66662499,صباح الأحمد البحرية-قطعة 1-قسيمة 1037-محل رقم 11,حسن زايد سعد الديثان,,
دار السلامة,199,19944263,48.01233839,29.34709404,حولي -قطعه 3-شارع عبدالله عبداللطيف العثمان,ص/عائشة محمد جاسم البعنون,,
المطوع الجهراء,200,14693565,47.66579171,29.35074706,الجهراء -قطعة 5-الشارع الرابع-قسيمة 3301,ص/لطيفة عبدالله سمير الظفيري,,
الصفوة,201,17450614,47.93160187,29.25893958,جليب الشيوخ-شارع المخفر-قطعة 17-قسيمة 17,ص/صوفيا محمد رؤوف محمد,,
مركز حولي,202,16440545,48.03797075,29.33932213,شرق حولي-قطعة 57-قسيمة 2-شارع حمود الناصر,ص/نعيمة يعقوب يوسف البالول,,
المروج,203,18705295,48.0714531,29.30638838,سلوى-قطعة 2-شارع 1-قسيمة 315,ص/ايمان عبدالرضا سيد مصطفى جلال ,,
مارينا,204,18405145,48.0856983,29.33890283,السالمية-قطعة 3-قسيمة 11169,ص/ليلى فاضل خلف التليجي,,
راما,205,13728893,48.13370891,29.07847621,الفحيحيل -قطعة 72-شارع 67-قسيمة 10,ص/علي محمود عبدالنبي العريان,,
السيف,206,19321082,48.12913339,29.07865719,الفحيحيل -قطعة 7-شارع 1-قسيمة 19,ص/احمد علي غلوم الرئيس,,
المطوع الفحيحيل,207,19052353,48.12093449,29.14736771,المهبوله -قطعة 2-شارع 232-قسيمة 5168,ص/عبير عبدالله جاسم التويتان,,
المطوع المركز الالماني,208,17397104,48.01452628,29.34818334,حولي-قطعة 4-شارع المعتصم قسيمة 115,ص/نسرين محمود اميني,,
المطوع الشعب,209,20592402,48.02669512,29.35561978,الشعب البحري -قطعة 8-مبنى 1011,ص/دانة سمير اديب الغواص,,
المطوع مزايا حولي,210,21032407,48.01314461,29.34776842,حولي-قطعة 4-قسيمة 127-مجمع مزايا,ص/ولاء نادر أبو القاسم معرفي,,
المطوع الدوائية,211,10853373,48.01426303,29.34794528,حولي-قطعة 4-قسيمة 116-شارع المعتصم,ص/روان صادق جاسم المطوع,,
المطوع شرق,212,20033475,47.98399869,29.38640689,شرق-قطعة 2-قسيمة رقم 16,ص/رانية عبدالله محمد الخالدي,,
طيبه,213,91229133,47.669209 , 29.347789,الجهراء -قطعة 05-قسيمة 002804-شارع-08,السيد/عبدالله راشد سند الفضالة,,
لمى,214,90505474,48.02439919,29.32358345,الجابرية-قطعة 3أ-شارع 104-قسيمة 68+69,السيدة/لمى سند راشد الفضالة,,
دلال,215,14917012,47.90624535,29.30131658,الرقعي-قطعة 15-الشارع العام مبنى 40,السيدة/دلال جاسم محمد الزيد,,
المطوع ميد كلينك,216,21212782,48.02530738,29.35607775,الشعب -قطعة 8-شارع 81-قسيمة 00100,ص/فاطمة محمود حسين العبدالرزاق,,
المطوع العيون التخصصي,217,19609588,48.02713801,29.35510235,الشعب البحري-قطعة 8-قسيمةب7-شارع الخليج العربي,ورثة/جميل سلطان العيسى,,
الزين,218,96244615,48.095523 , 29.347593,السالمية-قطعة 1-قسيمة38,ص/تهاني سعود عبدالعزيز البناء,,
الخليجية النقرة,219,20922467,47.93693771,29.30322544,الرى-قطعة1-قسيمة 001873-شارع2,ص/صالح راشد عبدالله العباد,,
بوتس مغاتير,220,17038371,47.96212593,29.27915234,الفروانية-قطعة 3-شارع 58-قسيمة 4031,ص/عبدالله عبدالعزيز العنزي,,
المطوع بست,221,90207602,48.01676271,29.34750773,حولي-قطعة 4-شارع المعتصم-قسيمة 4,ص/عبير حسنى توفيق منصور,,
نيرة -المطوع بي كلينك,222,20771873,48.09344147,29.34525933,المطار الدولي-قطعة 1-قسيمة 900036-الإدارة العامة للطيران-مطار الجزيرة,ص/هديه إبراهيم عبدالرحيم معروف,,
الجامعة,223,18871883,48.01579606,29.33152654,حولي-قطعه 79-سارع موسي بنى النصير-قسيمة1,ص/لطيفه راشد عبدالله الطرموم,,
الكوثر,224,18244994,48.06831286,29.32640943,السالمية-قطعة 10-قسيمة20110,السيد/سالم عواد فرحان السهو,,
الخنساء,225,14730186,48.08435604,29.33423381,السالمية-قطعة 128-شارع الخنساء -قسيمة339,ص/ابتسام جاسم محمد السلطان,,
فلسطين,226,16934983,48.02885003,29.32967064,جليب الشيوخ-قطعة 2-قسيمة 104,شركة صيدلية فلسطين,,
شباري القحطاني,227,14654494,47.92542037,29.26329168,جليب الشيوخ-قطعة 1-شارع محمد بن القاسم -قسيمة48,ص/شباري علي محمد القحطاني,,
الرعاية الالمانية,228,14758154,47.92663568,29.25611921,جليب الشيوخ -قطعة 24-شارع المخفر-قسيمة 39,ص/سليمان صالح عبدالله الذربان,,
البادية,229,20175887,48.02727748,29.33861084,حولي-قطعة 27-شارع المثني-قسيمة 7,السيدة/شريفه بدر القطامي وشركاها,,
الرازي,230,11020365,48.0234591,29.3314584,حولي-قطعه5-قسيمه0084ا2-شارع احمد بن طولون,السيد/سالم مساعد العبد العبدالجادر,,
بالكو,231,20713745,47.95422023,29.32260008,الشويخ  الصناعية2-قطعة 1-شارع28-قسيمة 101,ورثة/سعدون راشد سالم أبو قماز,,
تداوي مزايا,232,20960519,48.00967931,29.36729059,بنيد القار-قطعة 1-المبنى 10-شارع الشريف الراضي,ص/منال محمد ضويحي السهلي,,
تداوي النور,233,13464074,48.12333401,29.12958349,أبو حليفة-قطعة 1-شارع فيصل المالك الصباح,ص/منيره فيصل عبدالوهاب بورسلي,,
تداوي الضياء,234,21167539,48.13168354,29.12997257,ابو حليفة-قطعة 1-قسيمة 003405-شارع صباح السالم الصباح,ص/نورة سليمان عبدالعزيز الماضي,,
تداوي السالمية,235,20355319,48.06242039,29.32190879,السالمية-قطعة 10-قسيمة 030955-شارع عبدالكريم الخطابي,ص/كوثر شبيب مراد اشكناني,,
فارما الايمان,236,15584299,47.91416512,29.3002844,الرقعي-قطعة 14-مبنى 18-الدور الأرضي-المحل الوحيد,نوره يوسف خالد الجناعي,,
تداوي,237,14632316,47.66490723,29.35146087,الجهراء-قطعة 33-شارع المتعب,ص/لولوة عبدالرحمن الدعيج,,
يونايتد الفروانية,238,20963103,47.96388246,29.26835374,الفروانية-قطعة 6-قسيمة 1264-محل رقم 10+11+12,ص/كوثر يوسف حمود الشمري,,
يونايتد غرناطة(جمعية غرناطة),239,15834884,47.87880936,29.31223183,غرناطة-قطعة 1-مبنى1,ص/عبدالعزيز حسين عبدالنبى الصايغ,,
يونايتد الوفرة,240,21290684,48.01350258,28.60686555,الوفرة السكنية-قطعة3-قسيمة 900013-شارع 400-مبنى جمعية الوفرة التعاونية-الدور الأرضي-محل رقم 7,ص/عبدالرحمن يوسف حمود الشمري,,
يونايتد اشبيلية(جمعية يونايتد اشبيلية),241,19951834,47.93669084,29.27377747,اشبيلية-قطعة 3-شارع 513-مبنى 900014,ص/منصور يوسف عبدالنبي الصايغ,,
ميزان المنقف,242,20342542,48.12816375,29.10788479,المنقف ق 1 شارع نايف الدبوس,السيد/ مناف عبد الرحمن الوزان,,
ميزان الفنطاس,243,19251141,48.11439811,29.17089941,الفنطاس ق 3 شارع 6,شركة اولاد جاسم الوزان,,
ميزان السيف,244,21510958,48.06730166,29.33267209,السالمية ق 84 برج بي كلينك,السيد/ علي عبد الرحمن جاسم الوزان,,
ميزان الشعب,245,20154963,48.0325762,29.34843213,الشعب ق 8 قسيمه 112,ص/ طارق جعفر يعقوب العريان,,
ميزان الجابرية,246,21497845,48.0213738,29.32455241,الجابرية ق 1 شارع 9 بناية 177,ص/ راشد رياض راشد خزعل,,
الكمال,247,18532726,48.08569921,29.3251711,السالمية-قطعة6-شارع قطر ,السيد/سليمان خالد جاسم الوزان,,
الدعاء,248,11641794,48.04514855,29.33105043,السالمية-قطعة 228-شارع سالم المبارك,السية/مريم يوسف حسين الملا,,
السنابل,249,11279916,48.08611927,29.33566631,السالمية-قطعة 128-قسيمة 18+19,السيد/داوود محمد جاسم الوزان,,
الفردوس,250,16995882,47.92804002,29.25772157,جليب الشيوخ -قطعة 2-شارع خالد عقاب الاشهب,ص/جاسم محمد جاسم الوزان,,
القدس,251,16200605,48.01417277,29.3482661,حول-قطعة4-قسيمة 000117-شارع المعتصم-الدور الأرضي,مساعد عبدالعزيز سعود الدويسان,,
فينيقيا,252,19453827,48.07307919,29.34076908,السالمية-قطعة 04-قسيمة 1ب045,السيد/يوسف صالح احمد الدعيج,,
صيدلية ياكو حولي,253,15212938,48.02579176,29.33374616,حولي -شارع تونس-قسيمة 20-محل رقم 8-الدور الأرضي,احمد حسين خلف الرامزي,,
صيدلية ياكو المركز الطبي,254,15668791,48.05527111,29.33049918,السالمية-قطعة 10-قسيمة 022604-شارع المغيرة بن شعبة,عهود شملان احمد البحر,,
صيدلية صحاري ياكو,255,11406815,48.05845335,29.33332396,السالمية-قطعة 187-شارع سالم المبارك-قسمية1أ+1ب+2-محل 14+15 سندرة,سعود عبدالعزيز فهد الحميضان,,
صيدلية ياكو,256,17476777,48.04486515,29.33101159,السالمية-قطعة 12-قسيمة 022803-شضارع أبو ذر الغفاري-الدور الأرضي,مشاري محمد عبدالله المطيري,,
صيدلية ياكو مجمع الوزارات (ابوللو سابقا),257,10118002,47.97650325,29.36515167,المرقاب -قطعة 1-شارع عبدالله السالم -قسيمة 900056-مجمع الوزارات -الدور الأرضي,اماني احمد غلوم حاجي,,
صيدلية ماسة ياكو,258,18327861,48.04651971,29.34047889,السالمية-قطعة 11-قسيمة00ا122-الشارع الثاني-الدور الأرضي,عماد عيسى علي الناصر,,
صيدلية ياكو العالمية,259,14581977,48.07097061,29.32571241,السالمية -قطعة 201-عقار رقم 14-المحل الوحيد-مخزن تابع للصيدلية -يوجد باب يؤدي الى سرداب اسفل الصيدلية ,احمد حسين محمد عبدالرضا,,
صيدلية ياكو العقيلة,260,18698275,48.0952061,29.17448185,العقيلة-قطعة 5-قسيمة000093-الدور الأرضي-المحل038/1,حامد احمد راشد حمادة,,
صيدلية زمردة ياكو,261,16842747,48.1202318,29.1699219,الفنطاس -قطعة 3-شارع 2-قسيمة3428-الطابق الأرضي-محل 7+8,غنيمه عبدالمحسن عثمان الشرهان,,
صيدلية دانة ياكو,262,13546272,48.12692619,29.10370103,المنقف-قطعة 4-قسيمة0ب5354-شارع عبدالله عبدالله حميدي غانم المعضادي-الدور الأرضي,غنيمه إبراهيم عبدالرحمن الجامع,,
صيدلية درة ياكو,263,18326244,48.11695536,29.17036852,الفنطاس -قطعة 3-قسيمة 001001-شارع 3-الدوري الأرضي,خالده احمد عبدالعزيز القطامي,,
صيدلية ياكو المركزية,264,15382857,47.96304301,29.27525549,الفروانية-قطعة4-شارع حبيب المناور-قسيمة 27-الدور الأرضي,سمير صالح فرحان السعيد,,
العبير,265,14182394,47.67520366,29.34138267,الجهراء-قطعة4-شارع 3-جادة 3-قسيمة 9117-الدور الأرضي,نوال يوسف محمد المسيليم,,
صيدلية دارين ياكو,266,18032035,48.05514303,29.33827993,السالمية-قطعة 9-قسيمة000539-شارع بغداد جادة7-الدور الأرضي,فيصل محمد حسين انى,,
صيدلية ياكو الفنطاس,267,18452822,48.01113179,29.33026329,الفنطاس-الشريط الساحلي-ق1-ش101-مبني 47-برج النصر-الدور الأرضي,زمزم حبيب علي المجادي,,
صيدلية ياكو الدولية,268,17588189,47.96775564,29.36789821,القبلة-قطعة 15-قسيمة 27-الدور الأرضي,حنان محمد عزت عبدالعظيم بركات,,
البيرق العالميه,269,18959172,48.09725631,29.17356968,العقيله ق 5 مبني 23,ص/ دانه علي عبد العزيز الشايع,,
البيرق الوطني,270,18643266,48.09695303,29.17306996,صباح السالم ق 1 مبني 287 شارع 104,ص/ غازي محمد برجس مفرج الدوسري,,
البيرق العالي,271,18254324,48.09725631,29.17356968,العقيلة ق 5 شارع مكه مول,ص/ حسين علي حسين عبد الرضا,,
البيرق الشامخ,272,21010654,48.11638412,29.17975488,ضاحية صباح السالم ق1 قسيمة 407,ص/ مني راشد عبد الله المنصور,,
رجوه(الاسم القديم البيرق الكويتي),273,15540579,48.01051659,28.61172605,الاحمدي-الوفرة السكنية قطعة 1-بلوك1-شارع 118-قسيمة900003,ص/ سامية عبد العزيز عبد الله المنصور,,
أوكسجين,274,15965497,48.08391339,29.24709221,صباح السالم ق 2 قسيمة 9,ص/ امل صنات سفر ضاوي السميري(تحولت الحكومة),,
اوكسجين الخليج,275,92796439,47.95461137,29.28794547,الفروانية ق 2 مبني 71ج,ص/ عمر ابراهيم عبد الواحد,الاسم غير موجود في المعلومات المدنية,
اوكسجين العمريه,276,19067002,47.95561108,29.2855402,الفروانيه ق 1 شارع 83,ص/ عاليه حامد علي الوهيب (اغلاق),,
بلوبيري الخليج,277,13754821,48.12585954,29.08399249,الفحيحيل- شارع المستوصف,السيدة/ احلام خضير عباس فارس,,
بلوبيري الفنطاس,278,19647832,48.11364165,29.17106348,الفنطاس ق 3 شارع عبدالله الحمدان,ص/ ريهام الياس أحمد حسين,,
بلوبيري المهبولة,279,20872738,48.1143956,29.16040706,المهبولة ق 1 شارع103 قسيمه 07003,ص/ عقيل محمود عباس شهاب,,
بلوبيري الحرمين,280,93968204,48.121372 , 29.13687,ابو حليفة ق 2 شارع 5,ص/ حيدر حسن نوشاد حسين محمد,,
بلوبيري الأقصي,281,17799998,47.94130494,29.25491871,جليب الشيوخ ق 10 شارع 100,ص/ ليلي عبد الله إسماعيل حسن,,
بلوبيري الشعب,282,16102087,47.96335347,29.28340758,الفروانية- قطعة 1 شارع 123,السيد / عبد الرحمن خضير عباس الفارس,,
بلوبيري فيلكا,283,12967673,47.93584146,29.25920885,جليب الشيوخ- شارع الرئيسي ق 17,السيد/ أحمد خضير عباس الفارس,,
بلوبيري السلامة,284,12139122,48.02529801,29.32151797,الجابرية-قطعة 3-شارع 7-قسيمة68,محمد خضير عباس الفارس,,
بلوبيري زمزم,285,92621794,47.95220269,29.27698211,الفروانية-قطعة76-شارع44-قسيمة20,سعاد حبيب حاجى يوسف,,
بلوبيري المدينة,286,12782038,47.8715534,29.30498745,الاندلس-قطعة 8-قسيمة 146-الدور الأرضي,منى فالح عصام العجمي,,
بلوبيري الاهرام,287,14946657,47.9616121,29.28257567,الفرواني-قطعة5-قسيمة ج1-شارع المطافي,منصور بندر حسين,,
بلوبيري جليب الشيوخ,288,14949604,47.94128858,29.26037739,جليب الشيوخ ق 7+8 مجمع العصيمي,ص/ احمد عطية الشمري,,
جنى,289,15255022,48.00788393,29.37025496,بنيد القار- ق 1  شارع بور سعيد,ص/ إيمان عبد الرحمن القاضي,,
جنى المنقف,290,92643563,48.13041543,29.09304058,المنقف ق 4 شارع 25 مبني بنك الكويت الدولي,ص/ أسيل أسعد ناصر الثاني,,
جنى حولي,291,20898241,48.03085123,29.33556029,حولي ق 45 شارع المثني عقار 25,ص/ هدي مهيدي حمد صالح العنزي,,
جنى الجهراء,292,18796342,47.66475875,29.35239426,الجهراء ق 3 شارع مرزوق المتعب,ص/ هيا عثمان حمد النامي,,
كيور,293,20274746,48.0659599,29.33210605,السالمية ق 10 ش المغيرة بن شعبة عقار ,ص/ افنان تركي احمد الانبعي  ,,
كيور الشويخ,294,21552496,47.94288965,29.34228615,الشويخ الصناعية شارع المطار,ص/شهد انور خليفة اليتامي,,
كيور العاشرة,295,15812554,48.12125596,29.15816846,المهبولة ق 2 شارع 214 قسيمة 202,ص/ بدور نادر  عبد النبي موسي قاسم,,
كيور خيطان,296,21220459,47.9680794,29.29265889,خيطان قطعه 9 شارع مسقط,ص/ ليلي حسين قاسم ابل,,
شمال غرب الصليبخات,297,95667712,47.82416207,29.32185854,الدوحة-قطعة 1-قسيمة 900019-شارع جمال عبدالناصر,سره علي فدعوس المطيري,,
اوزون الخنساء,298,20156803,48.09085977,29.33948324,السالمية ق 3 شارع الخنساء,ص/ سماء جاسم يوسف الرمضين,,
اوزون صباح السالم,299,21086931,48.07782855,29.26311956,صباح السالم ق 1 قسيمة 373,ص/ اسماء حمود مرزوق الشمري,,
اوزون القيصرية,300,91227963,47.67130221,29.35024968,الجهراء ق 48 قسيمة 11,ص/ وليد خالد خليل حمود,,
سما الكبرى,301,20067405,48.09819425,29.17015162,العقيلة-قطعة 5-قسيمة 84-سما مول,ص.علي سيد سعيد قاسم,,
اوزون الجهراء,302,21295709,47.67263104,29.33879442,الجهراءق4قسيمة9348مبني هياوين محل11,ص. صلاح مهدي منيف العنزي,,
روزيت السالمية,303,11258365,48.08045336,29.33601059,السالميةقطعة5 شارع البحرين قسيمة11914,ص/بثينة باقر جراغ الحداد ,,
روزيت هيلث,304,21322711,48.08630413,29.25663121,صباح السالم ق2 قسيمة 352,ص/ انعام جابر روضان,,
روزيت الجهراء,305,20056925,47.67494857,29.33998465,الجهراء ق 4 شارع 3 قسيمة 9129,ص/ دلال صباح يوسف المنصور,,
اضواء مكه,306,16010553,47.67238923,29.3453364,الجهراء-شارع مرزوق المتعب-قطعة 92-قسيمة 137,ص/احمد عادل سفاح الراشد,,
سلوي الكبري,307,11831117,48.06722106,29.30546401,سلوى-قطعة 1-شارع 2-قسيمة 208,ص/هند ناصر عبدالله العبيد,,
الاندلس الكبري,308,12779082,47.87721895,29.29985083,الاندلس-قطعة6-عقار رقم 238-محل 14,ص/فاضل عبدالنبي عباس حسين,,
الرابية فارما,309,12695014,47.93402549,29.29420995,الرابيه-قطعة 1-قسيمة 900008-شارع 40,ص/عبدالله عوض  فراج الحربي,,
العرف مها,310,16805671,47.67326609,29.34238059,الجهراء -قطعة 4-شارع سعد بن ماضي المطوطح-قسيمة 91103-الدور الأرضي,زهره محمد على محمد,,
العرف هلا,311,20272417,47.67508563,29.34012009,الجهراء -قطعة 4-قسيمة 9123-شارع 3-الدور الأرضي,غدير حسن محمد غلوم,,
شفاء الجزيرة,312,18126031,47.96189759,29.28059321,الفروانية -قطعة 40-قسيمة 11 -الدور الأرضي,انفال راشد عجيل العجيل,,
ربيع الجزيرة,313,19875077,47.9269148,29.25630639,جليب الشويخ-قطعة 24-شارع المخفر -رقم العقار 37,عادل محمد احمد الكندري,,
نسيم الجزيرة,314,18303149,48.133258,29.08435872,الفحيحيل -قطعة 10 -شارع مكة-قسيمة 17+سندرة,نجيبة محمد درويش جواد,,
خالدة,315,16269397,48.08062251,29.29428167,سلوي-قطعة 8-مبنى 251-الطابق الأرضي,ص/خالده عبدالله الخالد البدر,,
لولو,316,16649939,48.12348026,29.08386792,الفحيحيل -قطعة 8-قسيمة 003341-شارع ابن تيميه,السيدة/هدى محمد حسن صفوري,,
الياسمين,317,92699268,48.12930165,29.0857198,الفحيحيل-قطعة9-شارع المستوصف-قسيمة46,ص/ماجده ناصر محمد العجمي,,
البدوية,318,16578659,48.12348304,29.08148909,الفحيحيل -قطعة8-بناية29-قسيمة 33ب14,ص/علي سيد محمد حميد حسن,,
الحميضي الجابرية,319,14718267,48.01977369,29.32285013,الجابرية -قطعة 1أ-قسيمة 39-الدور الأرضي-المحل الوحيد,شركة احفاد حمد صالح الحميضي,,
أبو حليفة,320,17255966,48.13186086,29.1293464,أبو حليفة-قطعة 34-مبنى 17-الدور الارضصي-المحل الوحيد,سعد مبارك الساري المطيري,,
ابن سينا,321,96055937,47.97398461,29.2915096,الفحيحيل-قطعة74-شارع الدبوس-قسيمة 41-الدور الأرضي-محل رقم 34+35+36,مطلق مبارك الساري,,
اتش اس بي,322,94394492,47.97904455,29.28408702,خيطان-قطعة 6-شارع 38-قسيمة 391,صديقة عبدالامير على الصعيليك,,
الامل,323,13730635,48.13384809,29.07944917,الفحيحيل-قطعة 73-شارع 64-الدور الارضى-محل(19+20),محمد عبدالمحسن عبدالعزيز المخيزيم,,
الزاجل,324,11153547,48.08573776,29.34311465,السالمية-قطعة2-شارع يوسف بن حمود-قسيمة0079ب6-الدور الأرضي,عبداللطيف سليمان احمد حمد الأحمد,,
البدور,325,18973185,48.12795235,29.13721002,أبو حليفة-قطعة 60-قسيمة(5+6)-الدور الأرضي-المحلين الوحيدين,شيخة سعد مبارك الجرى,,
السرهيد,326,15503217,48.13520198,29.08015508,الفحيحيل-قطعة66-شارع مكة-مبنى 59-الدور الأرضي-محل رقم (1+2+11+12),سعود دغيمان السرهيد المطيري,,
طيبه كلينك,327,91229133,47.66920948,29.34778882,المنقف-قطعة1-شارع101-قسيمة8-الدور الأرضي-المحل الوحيد,عبدالله راشد سند الفضالة,العنوان لا يطابق المعلومات المدنية,
شركة صيدلية كور فارما,328,93458917,48.03715837,29.33119146,حولي-قطعة6-قسيمة005707-شارع 321-الدور الأرضي-المحل الوحيد,وليد محمد صالح القطان,,
دبي,329,10158717,47.97178868,29.37308882,سوق واجف-شسارع الجزائر-قسيمة22--محل 1+2,امينه عبدالامير حسن عيدي,,
الاتحاد,330,10115709,47.97684787,29.36762466,المرقاب-قطعه01-شارع الشهداء-قسيمة01-الدور الأرضي-محل 5+6,منيره عادل مبارك العصفور,,
الحياة,331,18947657,48.03815375,29.33905534,السالميه-قطعة57-شارع حمد الناصر-قسيمة3-الطابق الأرضي-المحل الوحيد,الاء صالح إبراهيم العبيد,,
مركز الربيعة الطبي,332,92953887,47.96507398,29.28724748,الفروانية-قطعة46-شارع المطار-قسيمة4-الدور الأرضي-المحل الوحيد,منى خضير عبدالله شهاب,,
غدير,333,91633099,48.02285622,29.32490585,الجابرية-قطعة1أ-قسيمة 000005-شارع إبراهيم حسين معرفي-الدور الأرضي,حمد سالم فرحان سالم,,
قرطبة,334,20680525,48.05308411,29.33583243,السالمية-قطعة 11-شارع يثرب-جادة 2-قسيمة 00ب105-الدور الأرضي,يوسف عبدالمحسن يوسف ثنيان الغانم,,
ال تي اس فارما,335,10247883,47.97510707,29.36980779,صباح السالم-قطعة1-قسيمة 447,ورثة/محمد إبراهيم محمد الرخيص,,
الساتول المرقاب,336,16642147,48.0123284,29.34309451,حولي-قطعة02-قسيمة021503-شارع ابن خلدون-الدور الأرضي,ند عفاف عبدالحميد المتولي,,
السلام,337,90243531,48.07779265,29.3407272,السالمية-قطعة49-شارع سالم المبارك-عقار31-الدور الأرضي,أميرة عيسى فرج بهبهاني,,
الإخلاص,338,20756542,48.0779774,29.26563868,صباح السالم -قطعة1-قسيمة443-مبنى علي حسين عبدالرضا,فاطمة-خنيات فرحان السالم,,
بو شهري الزهراء,339,20563214,48.00281403,29.37430706,السالميه-قطعة83-شارع2-عقار رقم 15,مصطفى جواد بوشهري,,
النمران,340,13031973,47.92663568,29.25611921,جليب الشيوخ-قطعة(24)-شارع المخفر-قسيمة 39,علي محمد سعود النمران,,
الهناء,341,11728654,48.05614085,29.32717639,شارع عمان -عمارة صافية الحضرم-رقم 20-قسيمة 254-الدور الأرضي,نوره فلاح علي العازمي,,
السماح,342,11355667,48.06812456,29.33821602,السالمية-قطعة1-شارع سالم المبارك-قسيمة1-الدور الأرضي والسندرة-محل رقم 526,صلاح الدين محمد صالح الغول,,
بو شهري,343,11417493,48.06097976,29.33479127,السالمي-قطعة 22-شارع سالم المبارك-قسيمة 1أ,جواد جاسم محمد بوهري,,
حولي,344,10856195,48.01498053,29.34572752,حولي-قطعة4-شارع تونس-قسيمة 8-الطابق الأرضي,وسيمه يوسف عبدالرزاق السجاري,,
الرائد,345,11491634,48.05967339,29.32366692,الفحيحيل-قطعة 11-قسيمة 074أ41-شارع58-الدور الأرضي,مها عادل مبارك العصفور,,
سبريت مارينا,346,20534894,48.09249345,29.34397433,السالميه-قطعة89-شارع الخنساء-قسيمة8903-الدور الأرضي,نهار سعود نهار جديع,,
الفهد,347,17089064,48.08273316,29.33272929,السالمية-قطعة 127-شارع البحرين-قسيمة 8-الطابق الأرضي-المحل الوحيد,فهد احمد فهد الفهد,,
ابن رشد,348,18714255,48.04478798,29.33253541,السالمية-قطعة52-قسيمة9-الطابق الأرضي-المحل الوحيد,محمد امين عبدالخضر بهبهاني,,
ابن النفيس,349,92797642,48.09284012,29.34285508,السالمية-قطعة3-شارع الخنساء-قسيمة 8914-الدور الأرضي,فتوح حسن جعفر,,
نورة,350,15642532,47.67589152,29.34072667,الجهراء-قطعة04-قسيمة009198-شارع 3-جادة01-الدور الأرضي,راشد صقر راشد الأرملي,,
المركز,351,11626236,48.04284644,29.33228046,السالمية-قطعة 11-قسيمة005310,عبدالله محمد عبدالله العلي,,
دانة الغانم,352,20132238,47.917756,29.30949258,الفروانية-قطعة 1 -قسيمة0050أ1-شارع علي فهد الدويلة-الدور الأرضي,يوسف خليفة يوسف الرومي,,
انترناشيونال كلينك,353,17724726,47.96714331,29.27356714,الفروانية-قطعة 58-قسيمة 18أ-الطابق الأرضي,الشركة المتحدة للأدوية,,
الأحلام,354,10313369,47.96512378,29.36249987,الصالحية-شارع فهد السالم -قطعة 13-الدور الأرضي,زمزم عبدالحسين علي رجب,,
المناور,355,93962451,47.96689972,29.27277654,الفروانية-قطعة 3-شارع حبيب مناور -قسيمة رقم 5828,هودنا محمد ناصر الرشيدي,,
المركز الكندي المتحدة-,356,19063781,47.99035902,29.38810619,شرق -قطعة 3-قسيمة 000020-شارع عبدالله صالح الملا-الدور الأرضي,شهد خالد حمد الصبيح,,
المعجل,357,10253001,47.97793145,29.37038182,المرقاب-قطعة 10-شارع عبدالله المبارك-قسيمة 6-الطلابق الأرضي,فيصل فهد عبدالرحمن المعجل,,
الوحدة,358,12267642,47.96939387,29.29088749,خيطان-قسيمة 006101-شضارع ناصر صنهات العصيمي-الدور الأرضي,فهد احمد فهد الفهد,,
غرناطة,359,91639773,47.9678988,29.36804673,القبلة-قطعة 15-شارع فهد السالم-قسيمة 7-مجمع العبدالهادي-الدور الأرضي-محل رقم 7+8,شركة صيدلية غرناطة,,
طارق,360,14704076,48.08712948,29.34246592,السالمية-قطعة 2-قسيمة 008216-شارع حمد المبارك-الدور الأرضي,طارق يوسف جمعة الياسين,,
العوده,361,11121932,48.02956878,29.34953761,الشعب البحري-قطعة 8-شارع نافع بن الأزرق قسيمة 28-المحل الوحيد,حسين مهدي حسين السليسل,,
الحافظ,362,10765242,48.01259525,29.34220263,حولي-قطعة 2-قسيمة 16915-الدور الأرضي-محل 22+23+24,ياسمين علي مراد بهبهاني,,
الكندي,363,12133281,48.03034807,29.32188217,الجابرية-قطعة 0ب3-قسيمة 000039-شارع 111-الدور الأرضي-المحل الوحيد,عبدالله مهنا سالم غانم,,
فارمالاين,364,20582458,48.08787729,29.34279583,السالمية-قطعة 82-شارع حمد المبارك-محل رقم 1,مريم عيسى على الناصر,,
الميدان,365,17024025,48.04376746,29.33240371,حولي-قطعة 53-شارع الفضالة-قسيمة 7أ,محمد صالح عبداللطيف بو حمره,,
القاهرة,366,16837657,48.01062933,29.3457864,حولي-قطعة 2-قسيمة 20101-الدور الأرضي-المحل الوحيد,حبيب محمد تقي بهبهاني,,
تبارك,367,17838125,47.67123758,29.34049534,الجهراء -قطعة 93-قسيمة 23-محل37+38-مجمع الحرمين التجار,ليلى على محمد شمساه,,
العالمية,368,13810491,48.13694426,29.07999773,الفحيحيل -قطعة 11-قسيمة007913-شارع عبدالله العجيل-الدور الأرضي,ورثة/علي حسين العيسى,,
دار الفلاح,369,14185894,47.67050239,29.34154326,الجهراء-قطعة 92-قسيمة 34-الدور الأرضي-المحل الوحيد,خديجة حمود فريج حمدان,,
ميدكس,370,21470335,48.13147769,29.08203061,الفحيحيل-قطعة 8-قسيمة 4322-شارع 43-المحل الوحيدي+سندرة,بدريه عبدالرحمن محمد العجيري,,
تشافى هيلث,371,19256452,48.03419764,29.33335416,حولي-قطعة 6-قسيمة 0049ا2-شارع المثنى-الدور الأرضي-المحل الوحيد,يوسف محمد حبيب الكندري,,
القوت(تم الغائها هيلث اند بيوتي القديمة),372,12155739,48.02860893,29.31708976,الجابرية-قطعة 06-شارع 7-قسيمة 216-ارضي الوحيد,حمود حمد محمد الخالدي,,
هيلث ابوتيك,373,19353113,48.09381027,29.33618017,السالمية-قطعة 3-شارع الرابع-قسيمة 9911-الطابق الأرضي-محل رقم 1,بدر ناصر مهنا العنزي,,
وصفة,374,94420312,47.91494858,29.30221947,الرقعي-قطعة 2-شارع الشيخ زايد بن سلطان-قسيمة 1496-الطابق الأرضي,فاطمة إبراهيم حاجي إبراهيم ,,
ياسين,375,17788017,47.97301856,29.37283803,القبلة-قطعة 7-قسيمة 26-الطابق الأرضي-محل رقم 5,محمد جاسم احمد عبدالحسين,,
مستشفى الضمان,376,95047134,48.10934981,29.07890725,جنوب الصباحية-قطعة 01-قسيمة 21-مبنى مستشفى الضمان,شركة مستشفى الضمان الصحي,,
الحويل,377,19446985,47.96696786,29.3671046,القبلة-قطعة 15-شارع فهد السالم-مبنى 26-محل رقم 2-(ميزانين +سرداب)+سندرة,أمل عبدالرحمن علي الحويل,,
بلسم,378,20227608,48.05519499,29.33690308,السالمية-قطعة09-قسيمة 000544-شارع بغداد -الدور الأرضي-الوحدة01+02,عمار فاضل عباس العباد,,
المدينة العباسية,379,19878745,47.93076098,29.25836481,جليب الشيوخ-قطعة4-شارع 13-مبنى 4-الدور الأرضي,مها سعود فهيد الروقي,,
خزامي,380,18580963,48.04760751,29.339604,السالمية-قطعة 11-شارع 2-قسيمة 1113000-الدور الأرضي,مريم على محمد العربيد,,
صيدلية بداية (سابقا واي جي ام),381,20537972,48.08774468,29.33392709,السالمية -قطعة 6-قسيمة 13902-شارع العوازم,فاطمة محمود عثمان العثمان,,
الضامر,382,21045523,48.37237559,28.66728641,صباح الأحمد البحرية-قطعة 1-قسيمة 709-محل رقم 7,هبه عبدالله سعد الضامر,,
السلام الدولي,383,92281013,48.00946534,29.3687089,بنيد القار-قطعة 1-شارع بور سعيد-قسيمة 235-برج المسيلة,فاطمة عبدالله علي الحجي,,
قطينة,384,94054973,48.03054644,29.35086365,الشعب-قطعة 8-قسيمة 7-الطابق الارضس-المحل الوحيد,هديل حمد جابر المرى,,
الراية جلوبال,385,19872167,48.08082927,29.25741836,ضاحية صباح السالم-قطعة 1-قسيمة 398-الدور الأرضي -محل رقم 5,يوسف احمد سعود الخميس,,
القرين,386,19752747,48.06232933,29.3287445,السالمية-قطعة 10-قسيمة 19624-شارع عيسى القطامي-الدور الأرضي,عبدالعزيز سعود ناصر الحميدان,,
جاد,387,18242286,48.01207071,29.33752895,حولي-قطعة 2-قسيمة 187-الدور الأرضي-محل رقم 350,أسماء سليمان عبدالعزيز المحطب,,
الريان,388,17439079,47.66672418,29.35157197,الجهراء-قطعة 3-شارع 90-جادة 2-عقار 6062,افراح سيف عيد بن عميره,,
ميريلاند,389,18507854,48.02578997,29.32919952,حولي-قطعة 7-شارع شرحبيل-قسيمة 9309-الدور الأرضي-المحل الوحيد,زينه باقر احمد بوخمسين,,
دار الطب,390,19652447,48.08412238,29.24854086,صباح السالم-قطعة 2-قسيمة 67-المحل رقم 1,احمد علي الكندري,,
امجاد المنقف,391,16070038,48.12624813,29.10678874,المنقف-قطعة 4-قسيمة 5368-الدور الأرضي-المحل رقم 1,نوف خالد ناصر الشهري الرشيدي,,
سما دار البراء,392,10906623,48.02766034,29.33973975,حولي-قطعة6-شارع بيروت-قسيمة 80010-محل رقم 985-سندرة داخل الصيدلية,ليلي هاشم عبدالله هاشم العلى,,
عافية العالمية,393,16872428,47.67339811,29.34196943,الجهراء-قطعة 4-شارع 3-جادة9-قسيمة 91106-الدور الأرضي-المحل الوحيد,عذبي عباس سالم العنزي,,
سما الكويت,394,19907411,47.95955746,29.27600373,الفروانية-قطعة 16-شارع114-قسيمة1-الدور الأرضي-المحل الوحيد,وسمية سعد فهاد العجمي,,
حور,395,20254067,48.08699159,29.34314085,السالمية-قطعة2-قسيمة 8225-شارع يوسف بن حمود-الدور الأرضي-المحل الوحيد,حنان عبدالله محمد عبدالكريم,,
فارما فاميلي,396,14675674,48.07871451,29.28719826,سلوى-قطعة 10-شارع 10-قسيمة 378-محل رقم 6-الدور الأرضي,منى حادي علي الشريفي,,
دوك كير,397,21048919,48.08998447,29.3477394,السالمية-قطعة02-قسيمة007141-الدور الأرضي ,حامد يوسف راشد المسيلم,,
تعافي هيلث,398,10719385,48.00543286,29.33804049,حولي-قطعة 01-قسيمة014703-شارع قتيبة بن مسلم-الدور الأرضي -المحل الوحيد,مي إسماعيل عبدالعال احمد علي,,
ترست,399,21323693,47.9554125,29.28807169,الفروانية-قطعة1-شارع فلاح النون-قسيمة69218,فهد محمد عبدالله الهاملي,,
برايم,400,20367192,48.00871025,29.36902791,بنيد  القار-قطعة 1-شارع بور سعيد -الدور الأرضي,مريم سعود صاهود المطيري,,
البنان,401,17199618,48.01342825,29.335235,حولي-قطعة 197-قسيمة 27-شارع موسي بن النصير,دلال عبدالله احمد الأحمد,,
الفحيحيل,402,13726505,48.13286502,29.07830035,الفحيحيل-قطعة 72+87-مبنى رقم 1+2-محل رقم 5,حمدان عبدالعزيز حمدان الحمدان,,
الرحمة,403,14802389,48.13483488,29.09262641,المنقف-قطعة 57-شارع الاحمدي-مبنى 62-الطابق الأرضي الوحيد,وفاء هجيج حمود العنزي,,
الشروق,404,13493393,48.12042781,29.13689617,أبو حليفة-قطعة 2-شارع 5-قسيمة 6-الدور الأرضي-المحل الوحيد,شيخة حامد سيد عنبر الرفاعي,,
ريانة الكويت,405,15385273,48.13677695,29.09274569,المنقف-قطعة 4-شارع عوض محمد الخضير -قسيمة 70-الدور الأرضي-المحل الوحيد,شريفه سليمان عبدالعزيز العمر,,
دار البراء,406,16862633,48.01429764,29.32237855,الجابرية-قطعة1أ-شارع 1-قسيمة 175-مخزن تابع للصيدلية بناية 175,نوره عبدالرزاق محمود المحمود,,
كير كلوفر,407,20129303,48.03876256,29.34116913,السالمية-قطعة 11-شارع حمد الناصر-قسيمة 001101-الدور الأرضي-المحل الوحيد,أنوار صالح عبدالله الموسوي,,
بوفارديا,408,20371028,48.09341561,29.34202522,السالمية -قطعة 3-شارع سعيد بن المسيب-قسيمة009110,محمد كاظم عباس شهاب,,
بايو كير,409,20944228,48.08713698,29.34594041,السالمية-قطعة 69-شارع سالم المبارك-مبني 21,عبداللطيف بدر عبيد السعيدي,,
شركة الخطوط الجوية الكويتية,410,20787058,47.96870275,29.25571646,المطار-قطعة 1-قسيمة 900025,شركة الخطوط الجوية الكويتية ,,
دار الشفاء,411,16257564,48.03674136,29.34269569,ميدان حولي-شارع واصل بن عطاء-قطعة 9-عقار رقم 8-,محمد جراغ عباس الحداد,,
دراغستور,412,18532101,48.05565309,29.33470506,السالمية-شارع عمان -قطعة 9-قسيمة 915-الدور الأرضي-المحل الوحيد,ورثة/محمد سعد محمد النخلان/ياسر محمد سعد النخلان,,
دريم,413,15976022,48.08067755,29.328596,السالمية-شارع قطر-محل رقم 10+11+12,ماجدة زكي جبرائيل حنين,,
دكتور كيو,414,92737033,48.1370795,29.09335612,المنقف-قطعة 4-الطريق الساحلي-قسمة 5706-مقابل نادي الفحيحيل البحري,يوسف بدر احمد الهندي,,
جوهرة السالمية,415,17017183,48.05692062,29.33723029,السالمية-قطعة 7-شارع بغداد قسيمة 7--الدور الأرضي-المحل الوحيد,زهره علي محمد المهنا,,
جلوبل كير,416,19592472,48.00896942,29.36898925,بنيد القار-قطعة 1-مبنى رقمك 128-شارع بو سعيد -الدور الأرضي,عمر عبدالله سيد محمد السيد عمر,,
الصفا,417,11657104,48.05141644,29.33067617,السالمية-قطعة 236-شارع سعد العازمي-مبنى 27-الدور الأرضي,ورثة المرحوم عبدالله محمود اسد/باسل عبدالله الأسد,,
الفجر,418,12239529,47.97481726,29.29019742,خيطان القديمة-قطعة 24-شارع ابن الزهير-مبنى 3-محل رقم 10+11,بشاير جاسم محمد الزيد,,
الفا بيتا,419,17810667,48.05149428,29.33345491,السالمية-قطعة 11-شارع عبدالله الفضالة-قسيمة 25-الدور الأرضي,منى عبدالحسين عبدالرضا محمد عوض,,
المدينة العالمية,420,10116197,47.97807773,29.36842106,المرقاب-قطعة 1-قسيمة 0000ب3-شارع عبدالعزيز حمد الصقر-الدور الأرضي,فوزية ذايب غازي العتيبي,,
العهود,421,93313347,47.67424737,29.34280017,الجهراء-قطعة 91-قسيمة 49 ,عهود محمد عبدالرحمن السويلم,,
علاجي,422,20644452,47.74497318,29.34773102,مدينة جابر الأحمد-قطعة 5-قسيمة 90001-جمعية جابر الأحمد التعاونية,دلال خالد الجميعان,,
علاجي ىالمباركية(اغلاق نهائي),423,18173129,47.97503856,29.37597768,القبلة-قطعة 5-شارع عمان-قسيمة 1-الدور الأرضي-محل رقم 94+96+97,ريم محمد سعود الدخيل,,
غصون الخليج,424,16006888,47.66871778,29.35350762,الجهراء-قطعة 3-قسيمة 9029-شارع 3-جادة,عبدالله عبدالعزيز خلف كرم,,
فارما روز(اغلاق نهائي),425,93423343,48.09695303,29.17306996,العقيلة-قطعة 5-قسيمة 86-وحده 17-مجمع اوتاد,فاطمة سالم ثعيل العتيبي,,
قطينة-مبارك الكبير,426,20024456,48.03054644,29.35086365,صباح السالم-قطعة 1-قسيمة 000390-شارع 101-الدور الأرضي-المحل الوحيد,عبدالله محمد عبدالله ذياب,,
فارمستكل,427,17558297,48.00596953,29.33840749,حولي-قطعة 01-قسيمة 014619-شارع ابن خلدون-الدور الأرضي-,شاهين عادل خلف القريني,,
كلوفر,428,93404855,48.01524226,29.32250336,الجابرية-قطعة 1أ-قسيمة 198-الدور الأرضي-المحل الوحيد,مها مفرح ضيدان الشمري,الاسم في المعلومات المدنية صيدلية التركي,
سويت لوريال(اغلاق نهائي),429,20074007,48.01543036,29.32626374,حولي-قطعة 11-قسيمة 13102-الدور الأرضي-المحل الوحيد,عيد جميعان مهدي المطيري,,
سلطان المركزية,430,90897447,48.1230536,29.13199584,أبو حليفة-قطعة 2-شارع الرازي-قسيمة 12-الدور الأرضي-المحل الوحيد,أنور سلطان العيسى,الاسم غير موجود في المعلومات المدنية,
سوبر مترو,431,94431118,48.06318935,29.32237698,السالمية-قطعة 10-شارع 10-جاده 2-قسيمة 20951-الدور الأرضي,عبدالعزيز جواد علوان اكروف,,
سمارت كير,432,20671805,48.08893001,29.3289009,شارع البحرين -قطعة 6,غنيمة ثابت إبراهيم الهارون,,
سكستي ديقرى,433,21154586,48.01406642,29.32227649,الجابرية-قطعة 10-قسيمة 176-الدور الأرضي-المحل الوحيد,وفاء جليل احمد حيدر,,
سدرة الكويت,434,18426034,48.01227907,29.32858737,حولي-قطعة 11-قسيمة 11514-شارع 164-الدور الأرضي-المحل الوحيد,ايمان علي فليح المطيري,,
كريم,435,19595884,48.12251385,29.15025191,المهبولة-قطعة 2-قسيمة 5230-شارع 233,يوسف محمد احمد اللنقاوي,,
ميس(مينامين سابقا),436,19025099,48.09385688,29.17431833,الاحمدي-العقيلة-قطعة 005-قسيمة 00043-مجمع الدره,ميساء هشام راشد الشرف,,
منار الايمان,437,13736105,48.13412631,29.07811723,الفحيحيل-قطعة 7-قسيمة 8303-الدور الأرضي-محل رقم واحد-يوجد مخزن للصيدلية+سندرة,منى عبدالعزيز إبراهيم الراشد,,
ماي مترو,438,21444823,48.13058702,29.09088392,الفحيحيل-قطعة10-شارع مكة-قسيمة 516-الدور الأرضي,مشاعل يعقوب يوسف المهنا,,
هلا سوبر سبيشلتي,439,17544418,48.01052076,29.33183976,حولي-قطعة 11-قسيمة 010456-شارع 152-الدور الأرضي-المحل الوحيد,فاطمة علي حسين دشتي,,
نوران الألماني,440,21573246,47.92677735,29.25621433,جليب الشيوخ-قطعة 4-شارع خالد عقاب الاشهب-مبنى 2438,تمارة عبدالحسين غلوم محمد,,
وي كير ديرة,441,16809584,48.04538598,29.33261577,السالمية-قطعة 11-قسيمة 005214-شارع عبدالله الفضالة-الدور الأرضي-المحل الوحيد,حصة يوسف العبيد,,
الجود,442,20039391,47.95464943,29.28755197,الفروانية-قطعة 2-قسيمة71أ172-شارع ناصر فلاح النون-الدور الأرضي,ليلى صالح  عبدالله سيدو,,
استر,443,16197282,47.96696529,29.27297814,الفروانية-قطعة3-شارع108-قسيمة 5826-شركة الخير العقارية,بدرية عبدالله غلوم بن حسن,,
الشرق الجديد,444,19061436,47.95975823,29.27564666,الفروانية-قطعة4-قسيمة 1603-المجل الأرضي,جمال محمد عصمان الشمري,,
السور,445,20009387,47.99246346,29.37023899,المرقاب -قطعة 03-قسيمة 0000ا2-شارع السور-الدور الأرضي-رقم37,فاطمة الزهراء-عدنان سيد عبدالصمد سيد,,
ماى سكن,446,93745123,48.05964381,29.32028362,السالمية-قطعة 12-شارع أبو ذر الغفاري-قسيمة 27118,ص.حنان فاروق حسين الزنكي,,
قاسم_تحول اسمها دار الشفاء الجهراء),447,91227365,47.66649514,29.35320993,الجهراء-قطعة 03-قسيمة 004536-شارع 4,ص/صالح عبدالرضا عبدالله قاسم,الاسم في المعلومات المدنية شفاء الجهراء,
ام سي,448,20914803,47.91140913,29.30764744,الرقعي-قطعة2-المبنى 117-,ص/نورة صغير خزيم العنزي,,
نبض,449,19613501,48.00773253,29.33449075,حولي-قطعة 1-شارع قتيبة بن مسلم-قسيمة016313,ص/شيرين محمد سمير مصطفي أبو نجم,,
مونتريال,450,20596825,47.96698672,29.27620591,الفروانية-قطعة 003-قسيمة005837-شارع 108,ص/حمد جاسم محمد الصايغ,,
الافنيو هيلث,451,18970136,47.94274278,29.30839128,الرى-قطعة1-قسيمة386-شارع سعد جديع الشتان,فاديا بديع الطحان,,
اور مترو,452,21446394,47.97421087,29.29047889,خيطان-قطعة07-قسيمة 000022-الدور الأرضي,ص/اسراء عبدالله احمد البلوشي,,
الشرق العالمية,453,12246518,47.9727446,29.29246868,خيطان-قطعة09-شارع مسقط-الدور الأرضي,قدرية عبدالله محمد هادي العوضي,,
سبيريت الساحل,454,90965585,48.13086683,29.09147635,الفحيحيل -قطعة 10-قسيمة 000501-شارع عوض محمد الخضير,ايمان يونس حميد العنزي,,
الاحمدي(تم غلقها),455,90907545,48.136939,29.10024903,المنقف-مركز الكوت الطبي-شارع البحرين-قطعة 4-قسيمة 89,بدر سلطان بن عيسى,,
الأبراج,456,20686169,48.11693764,29.14043025,المهبولة-قطعة1-قسيمة220-الطابق الأرضي-محل رقم 5,خلود سعد مبارك المطيري,,
صدف,457,13771883,48.13230183,29.08592592,الفحيحيل -قطعة (42/22)-قسيمة (9/8)-الطابق الأرضي-المحل الوحيد,ورثة/مبارك حشان نايف الحشان,,
المشاهير,458,95648239,47.98066632,29.37023716,المرقاب-قطعة 2-قسيمة 49-شارع عبدالعزيز حمد الصقر,ص/هيا نعيم أبو شنب,,
حولي اليرموك,459,16832565,48.0214754,29.33352506,حولي-قطعة 9-شارع محمد علي الدخان-قسيمة 7712,ص/سميحه يوسف عبدالعزيز الفليج,,
ايدول,460,20912402,48.02561737,29.3562929,الشعب-قطعة 8-قسيمة 98-شارع 81,ص/فرح عبدالحميد حسين ىصادق,,
الدوسري فارما,461,18092433,48.02522957,29.32748142,حولي-قطعة 9-قسيمة 009451-شارع 242,ص/منى خلف تركى الدوسرس,,
الشعب البحري,462,16234952,48.02536866,29.35409179,الشعب البحري-قطعة 8-شارع الشعب البحري-قسيمة 26,ص/منتهي فوزان ناصر العنجري,,
طارق الحديث,463,14733432,48.02756326,29.35467043,الشعب -قطعة 8-قسيمة 49-الدور الأرضي,ص/عتاب خلف احمد قطب الدين,,
رويال فكتوريا,464,21097315,48.08396732,29.26366102,صباح السالم-قطعة 1-شارع 101,ص/ايمان امير سالم بن سالم,,
التركي الدولي,465,18809166,48.01524226,29.32250336,الجابرية-قطعة 1ا0-قسيمة 00198-شارع 1,ص/أنور عبدالحميد تركي التركي,,
البراحه,466,11267886,48.07676282,29.33290316,السالمية-قطعة 5-قسيمة 017515-شارع قطر -الدور الأرضي,ص/منى حسين جواد الفيلي,,
الحكمه,467,21440339,48.04897067,29.33756189,السالمية-قطعة 11-شارع 3-جادة 10,ص/حسن محمد كرم محمد علي,,
الحريه,468,16789173,48.08656811,29.34346227,السالمية-قطعة 79-شارع يوسف بن حمود -محل رقم 8,ص/عفاف عبدالله سيف الوسمي,,
الصفاة الأمريكي,469,17760903,48.04348835,29.33236549,السالمية-قطعة 53-قسيمة 18-الدور الأرضي,ص.خالد سعود سالم العازمي,,
الصياد,470,94362386,48.08766678,29.32927738,السالمية-قطعة 152-شارع البحرين,ص/ايمان علي عبدالله الصياد,,
الكواكبي العالمية,471,90235427,48.08821919,29.34415599,السالمية-قطعة 2-قسيمة 007817-شارع يوسف بن حمد,ص/حيدر علي اكبر مخصيد,,
دانة العيسى,472,16198859,48.12246183,29.14208221,المهبلوة-قطعة 3-شارع 319-قسيمة 7194,ص/جمال حبيب السيد العلوي,,
السور الساحلي,473,18091828,48.12848123,29.14331013,المهبولة-قطعة 6-قسيمة 2-الدور الأرضي,ص/الشيماء يعقوب يوسف الشطي,,
برلين,474,20356776,48.11389162,29.14632439,المهبولة-قطعة 1-قسيمة 01ا143-شارع 119,ص/مبارك محمد مسفر العجمي,,
الحافظ الوطني,475,20335625,48.11405467,29.14822661,المهبولة-قطعة 1-شارع 119-الدور الأرضي,ص/محمد عبدالصمد علي وحيد,,
المتكاملة,476,20254294,48.13786835,29.07935317,الفحيحيل-قطعة 80+81+82-قسيمة 19,ص/مشاري علي عبداللطيف الدويسان,,
فيلا المهبولة,477,21104642,48.1243714,29.14982743,المهبولة-قطعة2-شارع 222-قسيمة 4103,ص/أنور حسن نايف الرميض,,
سوق الكوت,478,21034568,48.14163934,29.08098288,الفحيحيل-قطعة 14-شارع سالم صباح السالم الصباح,ص/زهراء فاضل أكبر لاري,,
نيو ريان كلينك,479,20553438,48.12914464,29.09672564,المنقف-قطعة 4-قسيمة 005527-شارع 20,ص/عنيزي محمد صالح العنيزي,,
العمرية,480,17210389,47.95886257,29.28907955,الفروانية-قطعة 63-قسيمة 164-الدور الأرضي,ص/صالح محمد حمد السعدان,,
انترناشونال كولتي,481,18945395,48.05411215,29.33524298,الفروانية-قطعة 58-قسيمة 18ا-الطابق الأرضي,الشركة المتحدة للأدوية,,
الكويت الحديثة,482,11444715,48.06325122,29.32754578,السالمية-قطعة 10-قسيمة 019618-شارع عيسى القطامي-جادة 18,ص/ساره طلال عبدالله المليحان,,
الناس,483,14600162,48.06940939,29.33901327,السالمية-قطعة 7-شارع سالم المبارك -مجمع دانا سنتر,ص/غايه ناصر عيسى السعد,,
روش,484,18160483,48.05973124,29.33620503,السالمية-قطعة 12-قسيمة 12-شارع سيد ياسين,ص/عيسى جاسم الخليفة,,
المها,485,18711919,48.07286934,29.33505727,السالمية-قطعة 5-قسيمة 16948-الدور الأرضي,ص/بدور عبدالرؤوف السيد بيومي,,
اليمامه,486,15434987,48.0094883,29.34209845,حولي-قطعة 2-شارع زرقاء اليمامة-قسيمة021635,ص/منى خليفة ملا عيسى الجيران,,
كلير,487,21017354,48.06907784,29.34071581,السالمية-قطعة 7-شارع59-قسيمة 2662,ص/فاطمة محمد محمود الرحماني,,
ميلانو,488,16809322,48.04577805,29.33266946,السالمية-قطعة11-قسيمة 005212-شارع عبدالله الفضالة,ص/نعيمةه علي محمد القبندي,,
لايف كير,489,19748377,48.04640414,29.33271466,السالمية-قطعة 11-قسيمة 3812-شارع عبدالله الفضالة,ص/عباس عبدالرزاق عباس صرخوه,,
الراية المتحدة,490,16848356,48.03055171,29.32994154,حولي-قطعة59-شارع 282-قسيمة 23,ص/جمال ناصر محمد العجمي,,
أبو فطيرة (الجميع),491,20602666,48.10150036,29.19704256,ضاحية أبو فطيرة-قطعة 2-قسيمة 9000010-جمعية أبو فطيرة,ص/بدرية خليل إبراهيم ,,
أم دي,492,95643411,48.08430355,29.25775611,صباح السالم-قطعة 1-قسيمة 000521-شارع 104-الدور الأرضي,ص/احمد علي محمد الهندي,,
ص.ج.السرة التعاونية,493,12088943,48.00300959,29.31395618,السرة-قطعة5-قسيمة 90003-شارع طارق بن زياد,جمعية السرة التعاونية,,
ص.ج. مشرف -فرع مبارك العبدالله,494,93825764,48.04438036,29.27319496,مبارك العبدالله -قطعة 6-قسيمة90007-شارع 4,جمعية مشرف التعاونية,,
ص.ج. النعيم,495,19002719,47.69930964,29.33624523,القصر-قطعة 03-قسيمة 900038-مبنى جمعية النعيم التعاونية,جمعية النعيم التعاونية,,
ص.ج.فهد الاحمدالتعاونية,496,17965044,48.10649478,29.13162542,ضاحية فهد الأحمد الصباح -قطعة 01-شارع 101-قسيمة 90006,جمعية فهد الأحمد التعاونية,,
ص.ج.مبارك الكبير والقرين التعاونية,497,18610595,48.09524344,29.18664974,مبارك الكبير-قطعة 7-قسيمة 900023,ص/ناصر نادر حسين علي جعفر,,
ص.ج.الخالدية,498,15047565,47.96367942,29.32868765,الخالدية-قطعة 2-السوق المركزي,جمعية الخالدية التعاونية,,
ص.ج.كيفان,499,10505256,47.96291592,29.33952875,كيفان -قطعة 02-قسيمة 900004-شارع فهد براك الصبيح,جمعية كيفان التعاونية,,
ص.ج.عبدالله السالم والمنصورية,500,14679835,47.98011963,29.35261053,ضاحية عبدالله السالم-قطعة 03-قسيمة 900001,جمعية عبدالله السالم والمنصورية -فرع عبدالله السالم,,
ص.ج.قرطبة,501,18243529,47.98475475,29.31301606,قرطبة-قطعة 5-قسيمة 90012-محل رقم 11,ص/انتصار نصر الله النصر الله,,
ص.ج.مبارك الكبير والقرين التعاونية-قطعة 2,502,15704561,48.07718963,29.20305006,القرين-قطعة 2-شارع 205 -جمعية ةمبارك الكبير والقرين,ص/ليلى يعقوب يوسف العلي,,
ص.ج.المنقف,503,20234496,48.12536984,29.10446177,المنقف-قطعة 4-قسيمة 900032-شارع فهد هملان الهملان,ص/عمر إبراهيم عبدالواحد الفيلكاوي,,
ص.ج.مشرف -قطعة 4,504,15242643,48.06932334,29.28034597,مشرف -قطعة 4-قسيمة 900017-شارع عبدالعزيز احمد الححمد,جمعية مشرف التعاونية,,
ص.ج.الدعية,505,10458242,48.01331361,29.35754544,الدعية-قطعة04-قسيمة 900001-مركز الضاحية,جمعية الدعية التعاونية,,
ص.ج.السالمية,506,11276635,48.08025876,29.33852387,السالمية-قطعة 05-قسيمة 900023-شارع البحرين,جمعية السالمية التعاونية,,
ص.ج.الاندلس والرقعي-فرع الاندلس,507,18995448,47.90094116,29.30157799,الاندلس-قطعة11-قسيمة900006-شارع 101,جمعية الاندلس والرقعي والتعاونية,,
ص.ج.العارضية,508,13187054,47.89640188,29.2818227,العارضية-قطعة 09-قسيمة 900004-شارع07,جمعية العارضية التعاونية,,
ص.ج.الصليبخات والدوحة,509,14125699,47.84644436,29.31468834,الصليبخات-قطعة05-قسيمة900003-شارع107,جمعية الصليبخات والدوحة التعاونية,,
ص.ج.الرحاب,510,14882868,47.9401049,29.28573377,الرحاب-قطعة 02-مركز الضاحية,جمعية الرحاب التعاونية,,
ص.ج.الصباحية,511,19698904,48.10656864,29.10692905,الصباحية-قطعة 05-قسيمة 9000015-الدور الارضس,جمعية الصباحية التعاونية,,
ص.ج.الدسمة وبنيد القار,512,10347374,47.99982036,29.3658366,الدسمة -قطعة 04-قسيمة 900010-شارع الامام الحسين  بن علي ابن ابى طالب,جمعية الدسمة وبنيد القار,,
ص.ج. القادسية,513,10429951,48.00373572,29.34974567,القادسية-قطعة 05-قسيمة 900001-شارع عبدالعزيز محمد الدعيج,جمعية القادسية التعاونية,,
ص.ج.صباح السالم,514,11966417,48.065138,29.24994176,صباح السالم-قطعة09-قسيمة 900043-شارع02,جمعية صباح السالم التاونية,,
ص.ج.بيان,515,19368024,48.04463628,29.30579057,بيان-قطعة 02-قسيمة 00012-شارع 13-الدور الأرضي,جمعية بيان التعاونية,,
ص.ج.النزهة,516,10486251,47.99197652,29.3417822,النزهه-قطعة 02-قسيمة90002-الدور الأرضي,جمعية النزهة التعاونية,,
ص.ج.الفحيحيل,517,19636121,48.12141478,29.08619604,الفحيحيل-قطعة 02-قسيمة 900015-شارع مطلق فهد العدواني-الدور الأرضي,جمعية الفحيحيل التعاونية,,
ص.ج.العدان والقصور-فرع العدان,518,14873937,48.06471413,29.2359296,العدان-قطعة 03-قسيمة 900021-شارع 20 ,جمعية العدان والقصور,,
ص.ج.الروضة,519,19888679,47.99848173,29.32952874,الروضة-قطعة 02-قسيمة 9000014-شارع عيسى عبداللطيف العبدالجليل,جمعية الروضة التعاونية,,
ص.ج. الشعب,520,11108885,48.02149192,29.35080724,الشعب-قطعة3-سوق جمعية الشعب وميدان حولي,جمعية الشعب التاونية,,
ص.ج.العديلية,521,10673954,47.98150841,29.32910292,العديلية-قطعة 4-شارع سلطان الكليب-قسيمة 900009,جمعية العديلية التعاونية,,
ص.ج.ضاحية صباح الناصر,522,14903454,47.88261031,29.27310951,ضاحية صباح الناصر-قطعة 01-قسيمة 900016-الشارع الرئيسي,جمعية صباح الناصر التعاونية,,
ص.ج. سلوي,523,90348966,48.07743276,29.29667954,سلوي-قطعة 05-شارع المخفر-الدور الأرضي,جمعية سلوى التعاونية,,
ص.ج.ضاحية الظهر,524,14982922,48.06418414,29.16847839,الظهر-قطعة 01-قسيمة 900021-طريق 20-الدور الأرضي,جمعية ضاحية الظهر التعاونية,,
ص.ج.الرقة,525,13325031,48.10118246,29.14332775,الرقة-قطعة 05-قسيمة900002-شارع05-السوق المركزي,جمعية الرقة التعاونية,,
ص.ج.اليرموك,526,92792796,47.96889253,29.30923588,اليرموك-قطعة03-قسيمة 900020-شارع عبدالعزيز بن عبدالله بن باز,جمعية اليرموك التعاونية,بحسب المعلومات المدنية يوجد عدد 2 صيدلية في الجمعية,
ص.ج.الشامية,527,16324229,47.96668419,29.35574672,الشامية -قطعة10-قسيمة 90001-شارع ابن منظور,جمعية الشامية والشويخ التعاونية,,
ص.ج.الفروانية,528,15940505,47.96026104,29.28009564,الفروانية-مبنى الجمعية-قطعة 35-شارع الفروانية العام,جمعية الفروانية التعاونية,,
ص.ج.الفردوس,529,12830095,47.87234435,29.28396341,الفردوس-قطعة 03-قسيمة 900015-شارع إبراهيم بن الاغلب,جمعية الفردوس التعاونية,,
ص.ج.العدان والقصور-فرع القصور,530,15006974,48.07499311,29.21515136,القصور -قطعة05-قسيمة900010-شارع 26-مبنى جمعية العدان والقصور التعاونية,جمعية العدان والقصورة التعاونية -فرع القصور,,
ص.ج.السلام والصديق التعاونية,531,18029741,48.00984907,29.29669793,السلام-قطعة 04-قسيمة 900005-شارع 418,جمعية السلام والصديق التعاونية,,
ص.ج.النسيم -فرع العيون,532,14963625,47.65549589,29.32890199,العيون-قطعة 04-قسيمة 900025-منى جمعية النسيم فرع العيون,جمعية النسيم التعاونية-فرع العيون,,
ص.ج.علي صباح السالم,533,16515324,48.15952663,28.96249517,علي صباح السالم -قطعة 09-قسيمة 900026-شارع 105,جمعية علي صباح السالم التعاونية,,
ص.ج.جابر العلي,534,18521533,48.07916537,29.17197549,جابر العلي-قطعة 08-قسيمة 900023-مبنى جمعية جابر العلي,جمعية جابر العلي التعاونية,,
ص.ج.الشهداء,535,19275362,48.03341594,29.27005411,الشهداء-قطعة 04-شارع 417-مبنى جمعية الشهداء,جمعية الشهداء التعاونية,,
ص.ج.الجابرية,536,18955534,48.03433355,29.31761579,الجابرية-قطعة 7-شارع الرئيسي,جمعية الجابرية التعاونية,,
ص.ج.الرميثية,537,90300292,48.0784753,29.31711098,الرميثية-المركز الرئيسى-قطعة 7-شارع ناصر المبارك,جمعية الرميثية التعاونية,,
ص.ج.الصليبية,538,14334095,47.82407764,29.28844631,الصليبية-سوق الجمعية-قطعة 04-الدور الأرضي,جمعية الصليبية التعاونية,,
ص.ج.الفيحا التعاونية,539,10467501,47.97979034,29.33839521,الفيحاء -قطعة 05-قسيمة 900004-شارع الزهراء,جمعية الفيحاء التعاونية,,
ص.ج.ابو حليفة,540,18037098,48.12652638,29.13248767,أبو حليفة-قطعة 02-قسيمة 900029-شارع محمد عبدالمحسن الدعيج,جمعية أبو حليفة التعاونية,,
ص.فارمازون الرعاية,541,21302956,47.99123214,29.2922571,الصديق-قطعة 5-قسيمة 900017-مبنى جمعية الصديق التعاونية -شارع عبدالعزيز التويجري,ص/فواز مصطفى عبداللطيف العومي,,
ص.ج.مدينة جابر الأحمد,542,93511001,47.78014501,29.33497536,ضاحية صباح الأحمد الأولى-قطعة 6-شارع المعتصم,ص/احمد سليمان عبدالعزيز الضويحي,,
ص.ج.سعد العبداللة,543,17966282,47.71557395,29.30722654,مدينة سعد العبدالله-قطعة 2-قسيمة 900024,جمعية سعد العبدالله التعاونية,,
ص.ج.الجهراء,544,17971938,47.65860403,29.34414267,الجهراء-قطعة 42-الدور الأرضي,جمعية الجهراء التعاونية,,
ص.ج.العقيلة,545,95408067,48.10206373,29.17017096,العقيلة-جمعية العقيلة التعاونية-قطعة 2,فاطمة مساعد خليفوة,الاسم غير موجود في المعلومات المدنية,
ص.ج.حطين,546,18750846,48.02013572,29.28091747,حطين-قطعة 4-قسيمة 90009-الدور الأرضي,جمعية حطين التعاونية,,
ص.ج.النهضة,547,17941288,47.8582285,29.30501427,النهضة-قطعة 2-شارع 1-قسيمة 900024,جمعية الننهضة التعاونية,,
ص.ج.الزهراء,548,93252724,48.00338152,29.27882137,الزهراء-قطعة 4-قسيمة 900004-شارع 42,جمعية الزهراء التعاونية,الاسم غير موجود في المعلومات المدنية,
ص.ج.هدية,549,15241368,48.09186584,29.14045235,هديه-قطعة1-الدور الأرضي-مبنى الجمعية الرئيسى,جمعية هدية التعاونية,,
ص.ج.ضاحية عبدالله المبارك,550,18077073,47.89495254,29.24390231,ضاحية عبدالله المبارك-قطعة 5-شارع 501-5سيمة 900030,جمعية ضاحية عبدالله المبارك التعاونية,,
ص.ج.النسيم التعاونية-فرع تيماء,551,14446927,47.68029599,29.3282331,الجهراء-قطعة 7-شارع تيماء -السوق المركزي,جمعية النسيم التعاونية -فرع تيماء,,
ص.ج.النسيم-النسيم,552,15040224,47.67084593,29.32305744,النسيم-قطعة 1-الشارع الرئيسي,جمعية النسيم التعاونية-فرع النسيم,,
ص.ج.العمرية,553,12677588,47.9544995,29.29486337,العمرية-قطعة 03-قسيمة 9000007-شارع سعود محمد النمران,جمعية العمرية-التعاونية ,,
ص.مستشفى هادي,554,90518013,48.04582061,29.32165342,الجابرية-قطعة 8-شارع 101-مبنى 16,فهد يوسف الميلم,الاسم في المعلومات المدنية هادي,
ص.مستشفى العرف,555,19770873,47.67364609,29.34351841,الجهراء-قطعة 4-قسيمة 91121,منصور بنيه العرف,,
ص.مستشفى السلام الدولي-الاحمدي,556,95401121,48.11396381,29.14752107,المهبولة -قطعة 1-شارع 119-قسيمة ا2329,,,
ص.مستشفى رويال حياة,557,16988025,48.02648975,29.32623764,الجابرية-قطعة ا3-مقابل الدائري الرابع,احمد عبدالعزيز الغنام,,
ص.مستشفى دار الشفاء الجديد,558,92618114,48.01892986,29.33538312,حولي-قطعة 9-شارع بيروت,صالب علي حسين جراغ,,
ص.مستشفى الاحمدي -التخصصي,559,19367961,48.077789,29.09823794,شمال الاحمدي -قطعة 15-قسيمة 90004,شركة نفط الكويت,,
ص.مستشفى طيبة,560,90367104,48.08146819,29.25081456,صباح السالم-قطعة 3-شارع 3-قسيمة 112,سند صالح الفضالة,,
ص.مستشفى السيف,561,18230357,48.09240026,29.33320868,السالمية-شارع البلاجات -مستشفى السيف,منصور محمود حاجي,,
ص.مستشفى لندن,562,92469876,48.11532194,29.17969011,الفنطاس-قطعة 1-قسيمة 66157,شاهين عبداللطيف الغانم,,
ص.مستشفى واره,563,20847989,48.08738299,29.2569348,صباح السالم -قطعة 2-قسيمة 355+295,غنيمه حسين فهد العمر,,
ص.مستشفى عالية الدولية,564,18082251,48.12072997,29.14561626,المهبولة -قطعة ا1-قسيمة 320-,شركة الامل بالشفاء للخدمات الطبية,,
ص.مستشفى الراشد,565,11505864,48.05611578,29.32842005,السالمية-قطعة 10-شارع عمان,شركة مستشفى الراشد,,
ص.مستشفى المواساة الجديد,566,11165628,48.0873595,29.34413911,السالمية-شارع يوسف حمود -قطعة 2-قسيمة79+82,عبدالله عدنان محمد الوزان,,
ص.مستشفى سدرة الكويت,567,17695275,47.90821678,29.30662315,الرقعي-الدائري الرابع -بجوار مجمع المحاكم,شركة مركز مناور الطبي,,
ص.المستشفى الدولي,568,95402933,48.08119188,29.33084327,السالمية ق126 شارع قطر,شركة الكويت للخدمات الطبية,,
ص.عيادة شركة البترول الوطنية,569,91137466,48.08723032,29.09312417,مصفاة ميناء عبدالله-شركة البترول الوطنية,شركة البترول الوطنية,,
ص.مستشفى الكويت,570,17980543,48.08730435,29.25812863,صباح السالم ق 1 شارع الفحيحيل,شركة المركز الطبي الكويتي,,
